{"type":"FeatureCollection","features":[{"type":"Feature","properties":{"name":"Acadia","fips":"22001"},"geometry":{"type":"Polygon","coordinates":[[[-92.2847,30.1474],[-92.426,30.0494],[-92.5346,30.1079],[-92.6255,30.0923],[-92.5911,30.1824],[-92.6266,30.2303],[-92.632,30.4811],[-92.2448,30.4802],[-92.1764,30.4369],[-92.1422,30.2988],[-92.2847,30.1474]]]}},{"type":"Feature","properties":{"name":"Bienville","fips":"22013"},"geometry":{"type":"Polygon","coordinates":[[[-93.4282,32.2359],[-93.3728,32.4102],[-93.2367,32.4101],[-93.1472,32.4552],[-93.1788,32.5849],[-92.8808,32.5853],[-92.8793,32.4541],[-92.7772,32.4535],[-92.7749,32.2371],[-92.8147,32.1469],[-93.1872,32.1484],[-93.214,32.2361],[-93.4282,32.2359]]]}},{"type":"Feature","properties":{"name":"East Baton Rouge","fips":"22033"},"geometry":{"type":"Polygon","coordinates":[[[-91.021,30.3215],[-91.1423,30.3199],[-91.2415,30.3576],[-91.1972,30.5071],[-91.2627,30.5052],[-91.2977,30.6495],[-91.2544,30.7053],[-90.849,30.7193],[-90.9107,30.6494],[-90.9809,30.59],[-90.9915,30.4618],[-90.8917,30.3452],[-91.021,30.3215]]]}},{"type":"Feature","properties":{"name":"Jefferson Davis","fips":"22053"},"geometry":{"type":"Polygon","coordinates":[[[-93.1312,30.4236],[-93.0655,30.4386],[-92.7756,30.4377],[-92.7223,30.4882],[-92.6303,30.4879],[-92.6266,30.2303],[-92.5911,30.1824],[-92.6255,30.0923],[-92.7386,30.0373],[-92.9964,30.0385],[-92.8876,30.0825],[-92.8933,30.1563],[-92.9963,30.157],[-93.031,30.3794],[-93.1311,30.4031],[-93.1312,30.4236]]]}},{"type":"Feature","properties":{"name":"Ouachita","fips":"22073"},"geometry":{"type":"Polygon","coordinates":[[[-92.0652,32.723],[-91.911,32.6611],[-91.9131,32.5059],[-92.0043,32.3805],[-92.0344,32.2771],[-92.3119,32.2774],[-92.3118,32.3208],[-92.4154,32.4078],[-92.4151,32.5828],[-92.2723,32.581],[-92.0652,32.723]]]}},{"type":"Feature","properties":{"name":"Pointe Coupee","fips":"22077"},"geometry":{"type":"Polygon","coordinates":[[[-91.4149,30.5352],[-91.4851,30.4971],[-91.7562,30.4977],[-91.7337,30.7017],[-91.8153,30.8481],[-91.806,30.9726],[-91.7501,31.0188],[-91.6625,30.9704],[-91.6614,30.8571],[-91.5156,30.8614],[-91.553,30.7308],[-91.3806,30.7588],[-91.3531,30.7218],[-91.3407,30.6702],[-91.3309,30.6587],[-91.4149,30.5352]]]}},{"type":"Feature","properties":{"name":"St. Charles","fips":"22089"},"geometry":{"type":"Polygon","coordinates":[[[-90.1732,29.8275],[-90.2282,29.692],[-90.3462,29.6933],[-90.372,29.7592],[-90.4754,29.8122],[-90.5419,29.8915],[-90.5381,30.0169],[-90.4491,30.0329],[-90.2779,30.2309],[-90.2795,29.968],[-90.2402,29.8621],[-90.1732,29.8275]]]}},{"type":"Feature","properties":{"name":"Tangipahoa","fips":"22105"},"geometry":{"type":"Polygon","coordinates":[[[-90.5672,30.9997],[-90.3472,31.0004],[-90.2556,30.7119],[-90.243,30.2244],[-90.2779,30.2309],[-90.2974,30.2937],[-90.4013,30.2855],[-90.5461,30.4303],[-90.5672,30.65],[-90.5672,30.9997]]]}},{"type":"Feature","properties":{"name":"Vernon","fips":"22115"},"geometry":{"type":"Polygon","coordinates":[[[-93.5546,30.8775],[-93.5309,30.9245],[-93.5404,31.0081],[-93.5276,31.0745],[-93.5317,31.1808],[-93.5525,31.1856],[-93.5349,31.2766],[-93.4426,31.2767],[-93.3905,31.3641],[-93.2361,31.3645],[-92.9815,31.3466],[-92.8798,31.3174],[-92.8297,31.2523],[-92.8239,30.89],[-92.9785,30.8782],[-93.5546,30.8775]]]}},{"type":"Feature","properties":{"name":"West Baton Rouge","fips":"22121"},"geometry":{"type":"Polygon","coordinates":[[[-91.4149,30.5352],[-91.3309,30.6587],[-91.2977,30.6495],[-91.2627,30.5052],[-91.1972,30.5071],[-91.2415,30.3576],[-91.1421,30.3233],[-91.3117,30.3225],[-91.4851,30.4971],[-91.4149,30.5352]]]}},{"type":"Feature","properties":{"name":"Winn","fips":"22127"},"geometry":{"type":"Polygon","coordinates":[[[-92.3626,31.7966],[-92.6192,31.7971],[-92.62,31.7096],[-92.9735,31.7089],[-92.9668,31.7813],[-92.8722,31.9459],[-92.9391,32.1479],[-92.3122,32.1461],[-92.3126,31.9274],[-92.3626,31.7966]]]}},{"type":"Feature","properties":{"name":"Lafourche","fips":"22057"},"geometry":{"type":"Polygon","coordinates":[[[-90.0295,29.432],[-90.0343,29.3227],[-90.0285,29.3071],[-90.0097,29.2948],[-90.0195,29.2822],[-90.0571,29.2813],[-90.0605,29.2677],[-90.0706,29.2625],[-90.1012,29.2598],[-90.096,29.2407],[-90.0734,29.2273],[-90.0706,29.2087],[-90.0429,29.2118],[-89.9595,29.2677],[-89.9499,29.2632],[-89.9565,29.2537],[-90.022,29.2161],[-90.1743,29.1053],[-90.2236,29.0851],[-90.2453,29.0858],[-90.3488,29.0578],[-90.3499,29.0637],[-90.3255,29.0751],[-90.2531,29.0938],[-90.25,29.1081],[-90.2342,29.1103],[-90.2344,29.1288],[-90.2486,29.1384],[-90.2805,29.1425],[-90.2783,29.1507],[-90.3028,29.1751],[-90.3009,29.1962],[-90.2759,29.1937],[-90.2713,29.2046],[-90.2866,29.2257],[-90.3117,29.238],[-90.3115,29.2564],[-90.3328,29.277],[-90.3672,29.2741],[-90.3726,29.2589],[-90.3879,29.2528],[-90.3839,29.2356],[-90.3995,29.201],[-90.4094,29.1961],[-90.3767,29.3029],[-90.3843,29.3658],[-90.5746,29.5591],[-90.7668,29.6955],[-90.8077,29.7759],[-90.8802,29.7168],[-91.0067,29.7148],[-90.8856,29.9054],[-90.7857,29.9216],[-90.6563,29.8892],[-90.5419,29.8915],[-90.4754,29.8122],[-90.372,29.7592],[-90.3462,29.6933],[-90.2282,29.692],[-90.1558,29.6775],[-90.1862,29.5633],[-90.1375,29.4772],[-90.0295,29.432]]]}},{"type":"Feature","properties":{"name":"Lincoln","fips":"22061"},"geometry":{"type":"Polygon","coordinates":[[[-92.415,32.6701],[-92.4154,32.4955],[-92.6223,32.4964],[-92.6217,32.453],[-92.8793,32.4541],[-92.8808,32.5853],[-92.8285,32.7588],[-92.5713,32.7486],[-92.5184,32.6707],[-92.415,32.6701]]]}},{"type":"Feature","properties":{"name":"Livingston","fips":"22063"},"geometry":{"type":"Polygon","coordinates":[[[-90.6898,30.1766],[-90.8917,30.3452],[-90.9915,30.4618],[-90.9809,30.59],[-90.9107,30.6494],[-90.5672,30.65],[-90.5461,30.4303],[-90.4013,30.2855],[-90.4979,30.2559],[-90.5586,30.1937],[-90.6328,30.2214],[-90.6898,30.1766]]]}},{"type":"Feature","properties":{"name":"Natchitoches","fips":"22069"},"geometry":{"type":"Polygon","coordinates":[[[-93.4417,31.7145],[-93.4406,31.9137],[-93.3555,31.9322],[-93.2395,31.9035],[-93.2385,31.9728],[-93.1227,31.9727],[-93.1872,32.1484],[-92.9391,32.1479],[-92.8722,31.9459],[-92.9668,31.7813],[-92.9735,31.7089],[-92.9083,31.6252],[-92.8062,31.5985],[-92.719,31.5176],[-92.913,31.3682],[-92.9815,31.3466],[-93.2361,31.3645],[-93.2367,31.5383],[-93.3375,31.5381],[-93.339,31.7143],[-93.4417,31.7145]]]}},{"type":"Feature","properties":{"name":"Plaquemines","fips":"22075"},"geometry":{"type":"Polygon","coordinates":[[[-89.911,29.8685],[-89.8697,29.7955],[-89.721,29.7577],[-89.6282,29.6807],[-89.5186,29.6491],[-89.4867,29.621],[-89.5352,29.6486],[-89.6211,29.6571],[-89.6327,29.6717],[-89.6497,29.6729],[-89.6412,29.648],[-89.6473,29.6254],[-89.6845,29.6248],[-89.6881,29.6151],[-89.6686,29.5803],[-89.6845,29.5633],[-89.6811,29.5345],[-89.7008,29.5208],[-89.6939,29.5086],[-89.6658,29.49],[-89.6353,29.4893],[-89.5965,29.4563],[-89.5895,29.4377],[-89.5771,29.4337],[-89.5487,29.4657],[-89.5284,29.4547],[-89.5319,29.4257],[-89.5086,29.3862],[-89.4873,29.3933],[-89.4771,29.4112],[-89.4573,29.3931],[-89.38,29.3918],[-89.3403,29.3814],[-89.3507,29.3495],[-89.3232,29.344],[-89.3038,29.3575],[-89.283,29.3565],[-89.2653,29.3454],[-89.2409,29.3101],[-89.2242,29.3138],[-89.2006,29.3477],[-89.1894,29.3451],[-89.1795,29.3396],[-89.165,29.303],[-89.1403,29.2911],[-89.1297,29.2656],[-89.1001,29.2502],[-89.0955,29.238],[-89.1058,29.2316],[-89.1062,29.2159],[-89.1007,29.2063],[-89.0907,29.2],[-89.0219,29.2182],[-89.0007,29.1801],[-89.0053,29.1649],[-89.0243,29.17],[-89.0472,29.1578],[-89.0239,29.1337],[-89.052,29.1066],[-89.0623,29.0702],[-89.1215,29.0691],[-89.1698,29.0087],[-89.1861,29.018],[-89.1821,29.0255],[-89.1899,29.0326],[-89.1979,29.0297],[-89.2111,29.0408],[-89.2259,29.0787],[-89.2547,29.0833],[-89.2594,29.0584],[-89.2911,29.0531],[-89.3154,29.0391],[-89.3248,29.0138],[-89.3382,29.0129],[-89.3838,28.9474],[-89.4115,28.925],[-89.4199,28.9297],[-89.4082,28.9653],[-89.375,28.9854],[-89.3347,29.0403],[-89.3548,29.0725],[-89.3745,29.0842],[-89.4057,29.0869],[-89.4094,29.1279],[-89.4329,29.149],[-89.4723,29.2076],[-89.5366,29.2362],[-89.6067,29.252],[-89.6973,29.2967],[-89.7821,29.3111],[-89.8503,29.3118],[-89.8537,29.3406],[-89.8169,29.3844],[-89.826,29.4156],[-89.8436,29.4217],[-89.8344,29.4704],[-89.8626,29.4765],[-89.9022,29.46],[-89.9326,29.4293],[-89.962,29.4329],[-89.98,29.6076],[-90.0757,29.7719],[-90.0081,29.8955],[-89.911,29.8685]]]}},{"type":"Feature","properties":{"name":"Rapides","fips":"22079"},"geometry":{"type":"Polygon","coordinates":[[[-92.5089,30.896],[-92.8239,30.89],[-92.8297,31.2523],[-92.8798,31.3174],[-92.9815,31.3466],[-92.913,31.3682],[-92.719,31.5176],[-92.6947,31.4072],[-92.6319,31.3905],[-92.1961,31.4779],[-92.0867,31.3354],[-92.2332,31.3215],[-92.2343,31.1315],[-92.2083,30.9624],[-92.2807,30.9651],[-92.3827,31.0014],[-92.4803,30.9523],[-92.5089,30.896]]]}},{"type":"Feature","properties":{"name":"Red River","fips":"22081"},"geometry":{"type":"Polygon","coordinates":[[[-93.6147,32.2375],[-93.214,32.2361],[-93.1227,31.9727],[-93.2385,31.9728],[-93.2395,31.9035],[-93.3555,31.9322],[-93.4415,31.9892],[-93.5414,32.1059],[-93.536,32.1931],[-93.6147,32.2375]]]}},{"type":"Feature","properties":{"name":"Sabine","fips":"22085"},"geometry":{"type":"Polygon","coordinates":[[[-93.8186,31.5548],[-93.8349,31.5862],[-93.8125,31.7152],[-93.84,31.8006],[-93.8782,31.8443],[-93.4412,31.8452],[-93.4417,31.7145],[-93.339,31.7143],[-93.3375,31.5381],[-93.2367,31.5383],[-93.2361,31.3645],[-93.3905,31.3641],[-93.4426,31.2767],[-93.5349,31.2766],[-93.5525,31.1856],[-93.5885,31.1656],[-93.6023,31.1817],[-93.6208,31.2713],[-93.6444,31.2771],[-93.6717,31.2996],[-93.6408,31.3725],[-93.6959,31.4094],[-93.7296,31.4879],[-93.8186,31.5548]]]}},{"type":"Feature","properties":{"name":"Ascension","fips":"22005"},"geometry":{"type":"Polygon","coordinates":[[[-91.106,30.0625],[-91.021,30.3215],[-90.8917,30.3452],[-90.6898,30.1766],[-90.6328,30.2214],[-90.642,30.1664],[-90.9156,30.1133],[-90.9637,30.0664],[-91.106,30.0625]]]}},{"type":"Feature","properties":{"name":"St. Helena","fips":"22091"},"geometry":{"type":"Polygon","coordinates":[[[-90.8258,30.9994],[-90.5672,30.9997],[-90.5672,30.65],[-90.9107,30.6494],[-90.849,30.7193],[-90.863,30.942],[-90.8258,30.9994]]]}},{"type":"Feature","properties":{"name":"St. James","fips":"22093"},"geometry":{"type":"Polygon","coordinates":[[[-90.9637,30.0664],[-90.9156,30.1133],[-90.642,30.1664],[-90.6889,30.036],[-90.6563,29.8892],[-90.7857,29.9216],[-90.8856,29.9054],[-90.9599,29.9779],[-90.9637,30.0664]]]}},{"type":"Feature","properties":{"name":"St. Landry","fips":"22097"},"geometry":{"type":"Polygon","coordinates":[[[-92.4933,30.4805],[-92.4208,30.5388],[-92.2627,30.5387],[-92.2112,30.5681],[-92.1726,30.7134],[-92.2127,30.8486],[-91.8153,30.8481],[-91.7337,30.7017],[-91.7562,30.4977],[-91.6789,30.3947],[-91.8693,30.4172],[-91.9887,30.3686],[-92.0561,30.3782],[-92.1422,30.2988],[-92.1764,30.4369],[-92.2448,30.4802],[-92.4933,30.4805]]]}},{"type":"Feature","properties":{"name":"St. Martin","fips":"22099"},"geometry":{"type":"MultiPolygon","coordinates":[[[[-91.472,29.956],[-91.2552,29.9715],[-91.1828,29.8462],[-91.0927,29.8016],[-91.1,29.6994],[-91.2152,29.7512],[-91.3865,29.7837],[-91.3736,29.8344],[-91.472,29.956]]],[[[-91.7009,30.4974],[-91.6401,30.4427],[-91.6211,30.3099],[-91.5628,30.2419],[-91.4753,30.2292],[-91.4638,30.1025],[-91.3688,30.0588],[-91.6004,30.0332],[-91.6589,30.1082],[-91.7652,30.1085],[-91.8192,30.044],[-91.951,30.0732],[-91.9055,30.1546],[-91.9803,30.1852],[-91.9428,30.2366],[-91.9887,30.3686],[-91.8693,30.4172],[-91.6789,30.3947],[-91.7562,30.4977],[-91.7009,30.4974]]]]}},{"type":"Feature","properties":{"name":"St. Tammany","fips":"22103"},"geometry":{"type":"Polygon","coordinates":[[[-89.6906,30.4588],[-89.6299,30.3394],[-89.6434,30.2877],[-89.6077,30.2171],[-89.5727,30.1809],[-89.5245,30.1808],[-89.5375,30.1717],[-89.5628,30.1687],[-89.595,30.1499],[-89.7492,30.1764],[-89.7941,30.1513],[-89.8787,30.1992],[-89.9943,30.15],[-90.1055,30.1918],[-90.243,30.2244],[-90.2556,30.7119],[-89.9942,30.6654],[-89.8426,30.666],[-89.8068,30.572],[-89.7606,30.5158],[-89.6906,30.4588]]]}},{"type":"Feature","properties":{"name":"Vermilion","fips":"22113"},"geometry":{"type":"Polygon","coordinates":[[[-92.0254,29.5854],[-92.1586,29.5816],[-92.2519,29.5394],[-92.3094,29.533],[-92.6177,29.5791],[-92.6156,30.0382],[-92.7386,30.0373],[-92.6255,30.0923],[-92.5346,30.1079],[-92.426,30.0494],[-92.2847,30.1474],[-92.1281,30.1159],[-91.9645,30.0369],[-91.9904,29.9703],[-91.9704,29.8043],[-92.0357,29.7817],[-92.1075,29.7444],[-92.1444,29.7164],[-92.1493,29.6971],[-92.1118,29.6218],[-92.0253,29.6256],[-92.0004,29.6131],[-92.0254,29.5854]]]}},{"type":"Feature","properties":{"name":"Washington","fips":"22117"},"geometry":{"type":"Polygon","coordinates":[[[-90.3472,31.0004],[-89.7325,31.0048],[-89.7284,30.9711],[-89.7448,30.9189],[-89.7565,30.9004],[-89.7734,30.8977],[-89.8426,30.666],[-89.9942,30.6654],[-90.2556,30.7119],[-90.3472,31.0004]]]}},{"type":"Feature","properties":{"name":"Beauregard","fips":"22011"},"geometry":{"type":"Polygon","coordinates":[[[-93.7417,30.403],[-93.7027,30.4299],[-93.6978,30.4438],[-93.7101,30.5064],[-93.74,30.5388],[-93.7278,30.5741],[-93.5633,30.8185],[-93.5546,30.8775],[-92.9785,30.8782],[-92.9792,30.5983],[-93.1303,30.5979],[-93.1311,30.4031],[-93.3851,30.4026],[-93.3847,30.4901],[-93.4864,30.4905],[-93.4861,30.4025],[-93.7417,30.403]]]}},{"type":"Feature","properties":{"name":"Bossier","fips":"22015"},"geometry":{"type":"Polygon","coordinates":[[[-93.4282,32.2359],[-93.4712,32.2372],[-93.659,32.4061],[-93.6856,32.3955],[-93.6614,32.4276],[-93.6995,32.4975],[-93.7674,32.5384],[-93.7395,32.5908],[-93.7821,32.7122],[-93.8192,32.736],[-93.7832,32.7844],[-93.8243,32.7925],[-93.7852,32.8574],[-93.8426,32.9468],[-93.8146,33.0194],[-93.521,33.0186],[-93.5304,32.9754],[-93.448,32.8663],[-93.4412,32.4104],[-93.3728,32.4102],[-93.4282,32.2359]]]}},{"type":"Feature","properties":{"name":"Caddo","fips":"22017"},"geometry":{"type":"Polygon","coordinates":[[[-94.0426,32.196],[-94.043,33.0192],[-93.8146,33.0194],[-93.8426,32.9468],[-93.7852,32.8574],[-93.8243,32.7925],[-93.7832,32.7844],[-93.8192,32.736],[-93.7821,32.7122],[-93.7395,32.5908],[-93.7674,32.5384],[-93.6995,32.4975],[-93.6614,32.4276],[-93.6856,32.3955],[-93.659,32.4061],[-93.4712,32.2372],[-93.6147,32.2375],[-93.6665,32.3174],[-93.7913,32.3402],[-93.9511,32.1955],[-94.0426,32.196]]]}},{"type":"Feature","properties":{"name":"Cameron","fips":"22023"},"geometry":{"type":"Polygon","coordinates":[[[-93.8907,29.8432],[-93.7894,29.9878],[-93.7225,30.0509],[-93.1285,30.0526],[-92.9964,30.0385],[-92.6156,30.0382],[-92.6177,29.5791],[-92.7441,29.6176],[-92.9743,29.714],[-93.0882,29.7491],[-93.2269,29.7775],[-93.2956,29.7751],[-93.3473,29.759],[-93.4753,29.7692],[-93.6836,29.7472],[-93.766,29.7295],[-93.838,29.6906],[-93.8985,29.7716],[-93.8907,29.8432]]]}},{"type":"Feature","properties":{"name":"De Soto","fips":"22031"},"geometry":{"type":"Polygon","coordinates":[[[-94.0156,31.9799],[-94.0427,31.9993],[-94.0426,32.196],[-93.9511,32.1955],[-93.7913,32.3402],[-93.6665,32.3174],[-93.6147,32.2375],[-93.536,32.1931],[-93.5414,32.1059],[-93.4415,31.9892],[-93.3555,31.9322],[-93.4406,31.9137],[-93.4412,31.8452],[-93.8782,31.8443],[-93.9203,31.8887],[-93.9754,31.9237],[-94.0156,31.9799]]]}},{"type":"Feature","properties":{"name":"East Carroll","fips":"22035"},"geometry":{"type":"Polygon","coordinates":[[[-91.0908,32.564],[-91.1337,32.5379],[-91.4576,32.5378],[-91.431,32.5612],[-91.4453,32.582],[-91.3448,32.7567],[-91.3094,32.9352],[-91.265,33.0051],[-91.1661,33.0041],[-91.2018,32.9612],[-91.214,32.9303],[-91.1968,32.9068],[-91.1754,32.9],[-91.1451,32.9055],[-91.1321,32.9231],[-91.1344,32.9805],[-91.1066,32.9889],[-91.0868,32.9763],[-91.064,32.9241],[-91.0706,32.8887],[-91.1056,32.8584],[-91.1279,32.8551],[-91.145,32.8429],[-91.1583,32.8223],[-91.1644,32.7858],[-91.1634,32.747],[-91.0545,32.7223],[-91.0639,32.7029],[-91.1183,32.6741],[-91.1521,32.6415],[-91.1513,32.6159],[-91.1411,32.5972],[-91.1279,32.5865],[-91.1041,32.5847],[-91.0908,32.564]]]}},{"type":"Feature","properties":{"name":"Franklin","fips":"22041"},"geometry":{"type":"Polygon","coordinates":[[[-91.5757,31.8826],[-91.5969,31.9698],[-91.6475,31.9704],[-91.7292,31.8825],[-91.8049,31.8932],[-91.8897,31.9715],[-91.8947,32.1516],[-91.775,32.2433],[-91.7644,32.33],[-91.6349,32.4054],[-91.4767,32.4058],[-91.5267,32.3007],[-91.4927,32.2033],[-91.4898,32.0924],[-91.5757,31.8826]]]}},{"type":"Feature","properties":{"name":"Grant","fips":"22043"},"geometry":{"type":"Polygon","coordinates":[[[-92.9735,31.7089],[-92.62,31.7096],[-92.6192,31.7971],[-92.3626,31.7966],[-92.3477,31.6966],[-92.3844,31.6204],[-92.3069,31.5895],[-92.2662,31.4928],[-92.1961,31.4779],[-92.6319,31.3905],[-92.6947,31.4072],[-92.719,31.5176],[-92.8062,31.5985],[-92.9083,31.6252],[-92.9735,31.7089]]]}},{"type":"Feature","properties":{"name":"Jackson","fips":"22049"},"geometry":{"type":"Polygon","coordinates":[[[-92.3118,32.3208],[-92.3122,32.1461],[-92.8147,32.1469],[-92.7749,32.2371],[-92.7772,32.4535],[-92.6217,32.453],[-92.6223,32.4964],[-92.4154,32.4955],[-92.4154,32.4078],[-92.3118,32.3208]]]}},{"type":"Feature","properties":{"name":"Jefferson","fips":"22051"},"geometry":{"type":"Polygon","coordinates":[[[-90.2282,29.692],[-90.1732,29.8275],[-90.2402,29.8621],[-90.2795,29.968],[-90.2779,30.2309],[-90.1055,30.1918],[-90.1248,29.9758],[-90.1401,29.9479],[-90.0585,29.9453],[-90.0081,29.8955],[-90.0757,29.7719],[-89.98,29.6076],[-89.962,29.4329],[-89.992,29.4635],[-90.0125,29.4628],[-90.0295,29.432],[-90.1375,29.4772],[-90.1862,29.5633],[-90.1558,29.6775],[-90.2282,29.692]]]}},{"type":"Feature","properties":{"name":"Lafayette","fips":"22055"},"geometry":{"type":"Polygon","coordinates":[[[-92.2847,30.1474],[-92.1422,30.2988],[-92.0561,30.3782],[-91.9887,30.3686],[-91.9428,30.2366],[-91.9803,30.1852],[-91.9055,30.1546],[-91.9645,30.0369],[-92.1281,30.1159],[-92.2847,30.1474]]]}},{"type":"Feature","properties":{"name":"St. John the Baptist","fips":"22095"},"geometry":{"type":"Polygon","coordinates":[[[-90.642,30.1664],[-90.6328,30.2214],[-90.5586,30.1937],[-90.4979,30.2559],[-90.4013,30.2855],[-90.2974,30.2937],[-90.2779,30.2309],[-90.4491,30.0329],[-90.5381,30.0169],[-90.5419,29.8915],[-90.6563,29.8892],[-90.6889,30.036],[-90.642,30.1664]]]}},{"type":"Feature","properties":{"name":"Union","fips":"22111"},"geometry":{"type":"Polygon","coordinates":[[[-92.0652,32.723],[-92.2723,32.581],[-92.4151,32.5828],[-92.415,32.6701],[-92.5184,32.6707],[-92.5713,32.7486],[-92.7254,32.7595],[-92.7247,33.0143],[-92.0691,33.0082],[-92.0652,32.723]]]}},{"type":"Feature","properties":{"name":"Webster","fips":"22119"},"geometry":{"type":"Polygon","coordinates":[[[-93.2367,32.4101],[-93.4412,32.4104],[-93.448,32.8663],[-93.5304,32.9754],[-93.521,33.0186],[-93.2386,33.018],[-93.2374,32.7163],[-93.1866,32.7168],[-93.1788,32.5849],[-93.1472,32.4552],[-93.2367,32.4101]]]}},{"type":"Feature","properties":{"name":"West Feliciana","fips":"22125"},"geometry":{"type":"Polygon","coordinates":[[[-91.3309,30.6587],[-91.3407,30.6702],[-91.3531,30.7218],[-91.3806,30.7588],[-91.553,30.7308],[-91.5156,30.8614],[-91.6614,30.8571],[-91.6625,30.9704],[-91.6406,30.9961],[-91.1761,30.9991],[-91.2362,30.7951],[-91.3207,30.6994],[-91.3101,30.654],[-91.3309,30.6587]]]}},{"type":"Feature","properties":{"name":"Assumption","fips":"22007"},"geometry":{"type":"Polygon","coordinates":[[[-91.2244,30.0253],[-91.106,30.0625],[-90.9637,30.0664],[-90.9599,29.9779],[-90.8856,29.9054],[-91.0067,29.7148],[-91.0826,29.6264],[-91.1049,29.6425],[-91.0927,29.8016],[-91.1828,29.8462],[-91.2552,29.9715],[-91.2594,30.0002],[-91.2359,30.0011],[-91.2244,30.0253]]]}},{"type":"Feature","properties":{"name":"Caldwell","fips":"22021"},"geometry":{"type":"Polygon","coordinates":[[[-92.3126,31.9274],[-92.3119,32.2774],[-92.0344,32.2771],[-91.9799,32.1661],[-91.8947,32.1516],[-91.8897,31.9715],[-91.9044,31.9276],[-92.3126,31.9274]]]}},{"type":"Feature","properties":{"name":"Catahoula","fips":"22025"},"geometry":{"type":"Polygon","coordinates":[[[-92.0081,31.3258],[-92.0054,31.9273],[-91.9044,31.9276],[-91.8897,31.9715],[-91.8049,31.8932],[-91.7292,31.8825],[-91.6475,31.9704],[-91.5969,31.9698],[-91.5448,31.7517],[-91.6016,31.7619],[-91.6945,31.7353],[-91.7059,31.6429],[-91.7758,31.6486],[-91.8244,31.5997],[-91.7383,31.4316],[-91.8071,31.4388],[-91.8571,31.4945],[-91.8559,31.4238],[-91.7768,31.3852],[-91.845,31.3759],[-91.8622,31.3023],[-91.8343,31.2663],[-91.9269,31.2948],[-91.9948,31.2296],[-92.0081,31.3258]]]}},{"type":"Feature","properties":{"name":"Iberville","fips":"22047"},"geometry":{"type":"Polygon","coordinates":[[[-91.4753,30.2292],[-91.5628,30.2419],[-91.6211,30.3099],[-91.6401,30.4427],[-91.7009,30.4974],[-91.4851,30.4971],[-91.3117,30.3225],[-91.021,30.3215],[-91.106,30.0625],[-91.2244,30.0253],[-91.3688,30.0588],[-91.4638,30.1025],[-91.4753,30.2292]]]}},{"type":"Feature","properties":{"name":"La Salle","fips":"22059"},"geometry":{"type":"Polygon","coordinates":[[[-92.1961,31.4779],[-92.2662,31.4928],[-92.3069,31.5895],[-92.3844,31.6204],[-92.3477,31.6966],[-92.3626,31.7966],[-92.3126,31.9274],[-92.0054,31.9273],[-92.0081,31.3258],[-92.0867,31.3354],[-92.1961,31.4779]]]}},{"type":"Feature","properties":{"name":"Morehouse","fips":"22067"},"geometry":{"type":"Polygon","coordinates":[[[-91.9131,32.5059],[-91.911,32.6611],[-92.0652,32.723],[-92.0691,33.0082],[-91.4358,33.0061],[-91.5115,32.879],[-91.5664,32.8556],[-91.6376,32.6673],[-91.7423,32.5589],[-91.8043,32.5713],[-91.9131,32.5059]]]}},{"type":"Feature","properties":{"name":"Richland","fips":"22083"},"geometry":{"type":"Polygon","coordinates":[[[-91.4767,32.4058],[-91.6349,32.4054],[-91.7644,32.33],[-91.775,32.2433],[-91.8947,32.1516],[-91.9799,32.1661],[-92.0344,32.2771],[-92.0043,32.3805],[-91.9131,32.5059],[-91.8043,32.5713],[-91.7423,32.5589],[-91.6376,32.6673],[-91.596,32.5822],[-91.4453,32.582],[-91.431,32.5612],[-91.4576,32.5378],[-91.4767,32.4058]]]}},{"type":"Feature","properties":{"name":"Madison","fips":"22065"},"geometry":{"type":"Polygon","coordinates":[[[-91.0906,32.5627],[-91.1167,32.5001],[-91.1088,32.472],[-91.0702,32.4451],[-91.0296,32.4335],[-90.9941,32.4039],[-91.0045,32.3681],[-91.0001,32.3577],[-90.9015,32.3379],[-90.8986,32.3291],[-91.0046,32.2154],[-91.0215,32.2361],[-91.039,32.2423],[-91.1226,32.2169],[-91.1338,32.2493],[-91.3207,32.2025],[-91.4927,32.2033],[-91.5267,32.3007],[-91.4767,32.4058],[-91.4576,32.5378],[-91.1337,32.5379],[-91.0906,32.5627]]]}},{"type":"Feature","properties":{"name":"Orleans","fips":"22071"},"geometry":{"type":"Polygon","coordinates":[[[-90.1248,29.9758],[-90.1055,30.1918],[-89.9943,30.15],[-89.8787,30.1992],[-89.7941,30.1513],[-89.7492,30.1764],[-89.6229,30.1524],[-89.657,30.1184],[-89.6782,30.1083],[-89.6837,30.076],[-89.7275,30.0627],[-89.7315,30.0497],[-89.7163,30.0281],[-89.7246,30.0225],[-89.7632,30.0421],[-89.8186,30.0433],[-89.8545,30.0078],[-89.9899,29.9895],[-90.0121,29.946],[-89.921,29.9157],[-89.911,29.8685],[-90.0081,29.8955],[-90.0585,29.9453],[-90.1401,29.9479],[-90.1248,29.9758]]]}},{"type":"Feature","properties":{"name":"St. Bernard","fips":"22087"},"geometry":{"type":"MultiPolygon","coordinates":[[[[-89.911,29.8685],[-89.921,29.9157],[-90.0121,29.946],[-89.9899,29.9895],[-89.8545,30.0078],[-89.8442,29.9556],[-89.829,29.9392],[-89.8045,29.9326],[-89.7755,29.9374],[-89.7279,29.9588],[-89.7129,29.9463],[-89.7427,29.9359],[-89.7425,29.9082],[-89.692,29.8687],[-89.638,29.8641],[-89.5981,29.8814],[-89.5912,29.897],[-89.5923,29.9173],[-89.575,29.9595],[-89.5814,29.9947],[-89.5016,30.034],[-89.4941,30.041],[-89.4993,30.0589],[-89.4935,30.0722],[-89.4819,30.0791],[-89.4185,30.0497],[-89.3724,30.0547],[-89.3724,30.0367],[-89.4228,30.0155],[-89.4328,30.008],[-89.4334,29.9912],[-89.4328,29.9788],[-89.4054,29.9657],[-89.3792,29.9638],[-89.3786,29.9196],[-89.368,29.9115],[-89.3155,29.9232],[-89.2733,29.9938],[-89.2505,30.0024],[-89.2437,29.9972],[-89.25,29.9756],[-89.2181,29.9728],[-89.2312,29.9255],[-89.2801,29.9249],[-89.3183,29.8981],[-89.3223,29.8873],[-89.2893,29.8805],[-89.2414,29.8896],[-89.2363,29.8771],[-89.2699,29.86],[-89.3838,29.8389],[-89.373,29.8253],[-89.3456,29.8201],[-89.3428,29.7985],[-89.332,29.7905],[-89.3183,29.7888],[-89.2773,29.8076],[-89.2847,29.77],[-89.271,29.7564],[-89.3052,29.7569],[-89.3377,29.7791],[-89.3673,29.7751],[-89.3861,29.7888],[-89.4282,29.7416],[-89.4242,29.6976],[-89.5303,29.7437],[-89.5602,29.7355],[-89.5729,29.7466],[-89.6512,29.7495],[-89.6446,29.711],[-89.6184,29.7008],[-89.593,29.702],[-89.5968,29.6842],[-89.5739,29.674],[-89.5338,29.6702],[-89.4879,29.6304],[-89.4867,29.621],[-89.5186,29.6491],[-89.6282,29.6807],[-89.721,29.7577],[-89.8697,29.7955],[-89.911,29.8685]]],[[[-88.8651,29.7527],[-88.9444,29.6588],[-88.9416,29.6748],[-88.9118,29.6993],[-88.8736,29.758],[-88.868,29.7913],[-88.843,29.826],[-88.8363,29.8552],[-88.8433,29.8638],[-88.8312,29.8788],[-88.8282,29.9207],[-88.8409,29.9956],[-88.8574,30.0278],[-88.8815,30.0532],[-88.8556,30.0344],[-88.8412,30.0128],[-88.817,29.9342],[-88.8265,29.8471],[-88.8651,29.7527]]]]}},{"type":"Feature","properties":{"name":"Evangeline","fips":"22039"},"geometry":{"type":"Polygon","coordinates":[[[-92.6291,30.4806],[-92.5974,30.5839],[-92.5977,30.8961],[-92.5089,30.896],[-92.4803,30.9523],[-92.3827,31.0014],[-92.2807,30.9651],[-92.2127,30.8486],[-92.1726,30.7134],[-92.2112,30.5681],[-92.2627,30.5387],[-92.4208,30.5388],[-92.4933,30.4805],[-92.6291,30.4806]]]}},{"type":"Feature","properties":{"name":"West Carroll","fips":"22123"},"geometry":{"type":"Polygon","coordinates":[[[-91.265,33.0051],[-91.3094,32.9352],[-91.3448,32.7567],[-91.4453,32.582],[-91.596,32.5822],[-91.6376,32.6673],[-91.5664,32.8556],[-91.5115,32.879],[-91.4358,33.0061],[-91.265,33.0051]]]}},{"type":"Feature","properties":{"name":"Calcasieu","fips":"22019"},"geometry":{"type":"Polygon","coordinates":[[[-93.7225,30.0509],[-93.7121,30.0673],[-93.6953,30.1476],[-93.712,30.1943],[-93.7206,30.296],[-93.7359,30.2994],[-93.7658,30.3333],[-93.7577,30.3904],[-93.7417,30.403],[-93.4861,30.4025],[-93.4864,30.4905],[-93.3847,30.4901],[-93.3851,30.4026],[-93.1311,30.4031],[-93.031,30.3794],[-92.9963,30.157],[-92.8933,30.1563],[-92.8876,30.0825],[-92.9964,30.0385],[-93.1285,30.0526],[-93.7225,30.0509]]]}},{"type":"Feature","properties":{"name":"Claiborne","fips":"22027"},"geometry":{"type":"Polygon","coordinates":[[[-92.8808,32.5853],[-93.1788,32.5849],[-93.1866,32.7168],[-93.2374,32.7163],[-93.2386,33.018],[-92.7247,33.0143],[-92.7254,32.7595],[-92.8285,32.7588],[-92.8808,32.5853]]]}},{"type":"Feature","properties":{"name":"Concordia","fips":"22029"},"geometry":{"type":"Polygon","coordinates":[[[-91.3799,31.733],[-91.3979,31.7094],[-91.4047,31.6379],[-91.4647,31.6289],[-91.478,31.6109],[-91.4708,31.5856],[-91.4251,31.5778],[-91.4167,31.5616],[-91.45,31.5397],[-91.4797,31.5304],[-91.5112,31.5326],[-91.5229,31.5198],[-91.5151,31.4492],[-91.5004,31.419],[-91.5138,31.3869],[-91.5412,31.3568],[-91.5399,31.3373],[-91.5089,31.2916],[-91.5224,31.2734],[-91.5745,31.2613],[-91.5985,31.2055],[-91.6042,31.1545],[-91.5774,31.0782],[-91.5613,31.0609],[-91.5625,31.0432],[-91.5847,31.0202],[-91.6369,30.9994],[-91.6625,30.9704],[-91.7501,31.0188],[-91.6773,31.188],[-91.8343,31.2663],[-91.8622,31.3023],[-91.845,31.3759],[-91.7768,31.3852],[-91.8559,31.4238],[-91.8571,31.4945],[-91.8071,31.4388],[-91.7383,31.4316],[-91.8244,31.5997],[-91.7758,31.6486],[-91.7059,31.6429],[-91.6945,31.7353],[-91.6016,31.7619],[-91.3799,31.733]]]}},{"type":"Feature","properties":{"name":"East Feliciana","fips":"22037"},"geometry":{"type":"Polygon","coordinates":[[[-90.826,30.9994],[-90.863,30.942],[-90.849,30.7193],[-91.2544,30.7053],[-91.2977,30.6495],[-91.3094,30.652],[-91.3207,30.6994],[-91.2362,30.7951],[-91.1761,30.9991],[-90.826,30.9994]]]}},{"type":"Feature","properties":{"name":"Allen","fips":"22003"},"geometry":{"type":"Polygon","coordinates":[[[-92.5974,30.5839],[-92.6303,30.4879],[-92.7223,30.4882],[-92.7756,30.4377],[-93.0655,30.4386],[-93.1312,30.4236],[-93.1303,30.5979],[-92.9792,30.5983],[-92.9785,30.8782],[-92.5977,30.8961],[-92.5974,30.5839]]]}},{"type":"Feature","properties":{"name":"Avoyelles","fips":"22009"},"geometry":{"type":"Polygon","coordinates":[[[-91.8153,30.8481],[-92.2127,30.8486],[-92.2807,30.9651],[-92.2083,30.9624],[-92.2343,31.1315],[-92.2332,31.3215],[-92.0867,31.3354],[-92.0081,31.3258],[-91.9948,31.2296],[-91.9269,31.2948],[-91.8343,31.2663],[-91.6773,31.188],[-91.7501,31.0188],[-91.806,30.9726],[-91.8153,30.8481]]]}},{"type":"Feature","properties":{"name":"St. Mary","fips":"22101"},"geometry":{"type":"Polygon","coordinates":[[[-91.0826,29.6264],[-91.178,29.6097],[-91.2607,29.5445],[-91.2656,29.4724],[-91.2813,29.4815],[-91.2943,29.4769],[-91.3357,29.4859],[-91.3566,29.5152],[-91.4204,29.5157],[-91.4473,29.5447],[-91.531,29.5315],[-91.5255,29.5519],[-91.5374,29.5659],[-91.5535,29.6328],[-91.5706,29.6383],[-91.6251,29.6262],[-91.6489,29.6336],[-91.6273,29.6621],[-91.6185,29.7108],[-91.6215,29.7354],[-91.6328,29.7426],[-91.7109,29.739],[-91.7523,29.7483],[-91.7837,29.7407],[-91.8586,29.7031],[-91.881,29.7133],[-91.7111,29.8461],[-91.6247,29.9453],[-91.472,29.956],[-91.3736,29.8344],[-91.3865,29.7837],[-91.2152,29.7512],[-91.1,29.6994],[-91.1049,29.6425],[-91.0826,29.6264]]]}},{"type":"Feature","properties":{"name":"Tensas","fips":"22107"},"geometry":{"type":"Polygon","coordinates":[[[-91.0279,32.1127],[-91.128,31.9859],[-91.2481,31.8698],[-91.3384,31.8513],[-91.3595,31.7994],[-91.3651,31.7527],[-91.3799,31.733],[-91.5448,31.7517],[-91.5757,31.8826],[-91.4898,32.0924],[-91.4927,32.2033],[-91.3207,32.2025],[-91.1338,32.2493],[-91.1226,32.2169],[-91.1642,32.1969],[-91.1746,32.155],[-91.1655,32.1343],[-91.1314,32.1262],[-91.0466,32.1388],[-91.0302,32.1298],[-91.0279,32.1127]]]}},{"type":"Feature","properties":{"name":"Terrebonne","fips":"22109"},"geometry":{"type":"Polygon","coordinates":[[[-91.0067,29.7148],[-90.8802,29.7168],[-90.8077,29.7759],[-90.7668,29.6955],[-90.5746,29.5591],[-90.3843,29.3658],[-90.3767,29.3029],[-90.4094,29.1961],[-90.4329,29.1881],[-90.444,29.1958],[-90.4725,29.1927],[-90.4672,29.2025],[-90.4949,29.2167],[-90.4683,29.2275],[-90.4522,29.2662],[-90.5106,29.2909],[-90.5262,29.2765],[-90.5654,29.2851],[-90.5825,29.276],[-90.5897,29.2485],[-90.5445,29.2307],[-90.5609,29.2043],[-90.6338,29.2091],[-90.6456,29.1759],[-90.637,29.1646],[-90.647,29.1286],[-90.6777,29.1187],[-90.718,29.1166],[-90.7312,29.1229],[-90.7642,29.1134],[-90.7735,29.1001],[-90.7994,29.0874],[-90.8037,29.0637],[-90.7987,29.0548],[-90.7652,29.0494],[-90.7253,29.0666],[-90.6922,29.0596],[-90.6392,29.0728],[-90.6375,29.0666],[-90.7309,29.0423],[-90.8115,29.0366],[-90.8393,29.0392],[-90.8446,29.0673],[-90.8628,29.0949],[-90.9613,29.1808],[-91.0001,29.1695],[-91.0318,29.1822],[-91.094,29.1877],[-91.1291,29.2159],[-91.219,29.2261],[-91.2788,29.2478],[-91.3027,29.266],[-91.3349,29.2988],[-91.3328,29.3058],[-91.2918,29.3114],[-91.2766,29.3298],[-91.2699,29.3572],[-91.2491,29.3699],[-91.2073,29.3607],[-91.1975,29.3699],[-91.2001,29.3895],[-91.2185,29.4072],[-91.212,29.4209],[-91.2174,29.4325],[-91.2582,29.447],[-91.2656,29.4724],[-91.2607,29.5445],[-91.178,29.6097],[-91.0826,29.6264],[-91.0067,29.7148]]]}},{"type":"Feature","properties":{"name":"Iberia","fips":"22045"},"geometry":{"type":"MultiPolygon","coordinates":[[[[-92.0004,29.6131],[-91.9399,29.6103],[-91.9228,29.6332],[-91.863,29.6337],[-91.8413,29.6296],[-91.8383,29.616],[-91.8217,29.606],[-91.785,29.5952],[-91.7747,29.5764],[-91.7092,29.561],[-91.7654,29.5208],[-91.7705,29.489],[-91.7891,29.4821],[-91.8034,29.4869],[-91.8216,29.4739],[-91.8487,29.4841],[-91.8623,29.5024],[-91.9693,29.5369],[-92.0268,29.5668],[-92.0412,29.5816],[-92.0254,29.5854],[-92.0004,29.6131]]],[[[-91.3688,30.0588],[-91.2244,30.0253],[-91.2359,30.0011],[-91.2594,30.0002],[-91.2552,29.9715],[-91.6247,29.9453],[-91.7111,29.8461],[-91.8756,29.7223],[-91.8784,29.751],[-91.8592,29.7833],[-91.8547,29.8074],[-91.87,29.8283],[-91.8891,29.836],[-91.9069,29.8309],[-91.916,29.8157],[-91.9407,29.817],[-91.9704,29.8043],[-91.9904,29.9703],[-91.951,30.0732],[-91.8192,30.044],[-91.7652,30.1085],[-91.6589,30.1082],[-91.6004,30.0332],[-91.3688,30.0588]]]]}}]}