{"type":"FeatureCollection","features":[{"type":"Feature","properties":{"cls":"interstate","name":"10"},"geometry":{"type":"LineString","coordinates":[[-93.0,30.24],[-92.679,30.25],[-92.373,30.235],[-92.27,30.255],[-92.076,30.247],[-92.015,30.261]]}},{"type":"Feature","properties":{"cls":"interstate","name":"10"},"geometry":{"type":"LineString","coordinates":[[-94.139,30.059],[-94.137,30.097],[-94.075,30.099],[-94.011,30.13],[-93.91,30.132],[-93.78,30.108],[-93.514,30.2],[-93.432,30.214],[-93.325,30.219],[-93.276,30.238],[-93.0,30.24]]}},{"type":"Feature","properties":{"cls":"us","name":"ALT45"},"geometry":{"type":"LineString","coordinates":[[-88.663,33.6],[-88.66,33.491]]}},{"type":"Feature","properties":{"cls":"interstate","name":"30"},"geometry":{"type":"LineString","coordinates":[[-93.813,33.6],[-93.993,33.484],[-94.045,33.47]]}},{"type":"Feature","properties":{"cls":"us","name":"69"},"geometry":{"type":"LineString","coordinates":[[-94.144,30.042],[-94.084,30.042],[-93.95,29.913],[-93.967,29.813],[-93.922,29.745]]}},{"type":"Feature","properties":{"cls":"us","name":"165"},"geometry":{"type":"LineString","coordinates":[[-92.076,32.496],[-92.109,32.397],[-92.079,32.303],[-92.111,32.22],[-92.071,32.101],[-92.194,31.936],[-92.389,31.761],[-92.422,31.626],[-92.404,31.494],[-92.415,31.336]]}},{"type":"Feature","properties":{"cls":"us","name":"82"},"geometry":{"type":"LineString","coordinates":[[-88.66,33.491],[-88.785,33.487]]}},{"type":"Feature","properties":{"cls":"us","name":"82"},"geometry":{"type":"LineString","coordinates":[[-88.785,33.489],[-88.936,33.496],[-89.186,33.548],[-89.292,33.534],[-89.403,33.465],[-89.497,33.437],[-89.544,33.439],[-89.615,33.477],[-89.725,33.498],[-89.763,33.487]]}},{"type":"Feature","properties":{"cls":"us","name":"84"},"geometry":{"type":"LineString","coordinates":[[-88.639,31.699],[-88.613,31.733],[-88.525,31.742],[-88.452,31.784],[-88.4,31.78]]}},{"type":"Feature","properties":{"cls":"us","name":"45"},"geometry":{"type":"LineString","coordinates":[[-88.448,31.415],[-88.4,31.335]]}},{"type":"Feature","properties":{"cls":"us","name":"45"},"geometry":{"type":"LineString","coordinates":[[-88.638,31.699],[-88.471,31.468],[-88.448,31.415]]}},{"type":"Feature","properties":{"cls":"us","name":"45"},"geometry":{"type":"LineString","coordinates":[[-88.695,32.35],[-88.698,32.232],[-88.684,32.171],[-88.707,32.119],[-88.686,32.041],[-88.719,31.931],[-88.638,31.699]]}},{"type":"Feature","properties":{"cls":"us","name":"84"},"geometry":{"type":"LineString","coordinates":[[-90.478,31.542],[-90.207,31.561],[-90.114,31.544],[-90.029,31.589],[-89.886,31.601],[-89.801,31.645],[-89.699,31.645],[-89.659,31.626],[-89.558,31.645]]}},{"type":"Feature","properties":{"cls":"us","name":"84"},"geometry":{"type":"LineString","coordinates":[[-89.558,31.645],[-89.386,31.704],[-89.299,31.672],[-89.082,31.704],[-88.823,31.688],[-88.638,31.699]]}},{"type":"Feature","properties":{"cls":"interstate","name":"10"},"geometry":{"type":"LineString","coordinates":[[-91.123,30.391],[-91.031,30.346],[-90.978,30.242],[-90.926,30.186],[-90.697,30.127],[-90.438,30.089]]}},{"type":"Feature","properties":{"cls":"interstate","name":"55"},"geometry":{"type":"LineString","coordinates":[[-90.209,32.28],[-90.407,31.907],[-90.487,31.537]]}},{"type":"Feature","properties":{"cls":"interstate","name":"20"},"geometry":{"type":"LineString","coordinates":[[-90.213,32.275],[-90.376,32.353],[-90.445,32.367],[-90.635,32.353],[-90.758,32.365],[-90.819,32.343]]}},{"type":"Feature","properties":{"cls":"interstate","name":"20"},"geometry":{"type":"LineString","coordinates":[[-90.968,32.317],[-91.095,32.345],[-91.199,32.397]]}},{"type":"Feature","properties":{"cls":"interstate","name":"20"},"geometry":{"type":"LineString","coordinates":[[-90.968,32.317],[-90.907,32.317],[-90.819,32.343]]}},{"type":"Feature","properties":{"cls":"us","name":"90"},"geometry":{"type":"LineString","coordinates":[[-92.015,30.261],[-91.996,30.198],[-91.947,30.149],[-91.941,30.071],[-91.921,30.037],[-91.847,29.974],[-91.576,29.83],[-91.505,29.766],[-91.423,29.741],[-91.367,29.7],[-91.293,29.681],[-91.202,29.698],[-91.083,29.67],[-90.987,29.693],[-90.951,29.622],[-90.871,29.59],[-90.831,29.592],[-90.796,29.563],[-90.723,29.58],[-90.694,29.641],[-90.64,29.691],[-90.588,29.693],[-90.555,29.755],[-90.463,29.825],[-90.435,29.877],[-90.4,29.89]]}},{"type":"Feature","properties":{"cls":"interstate","name":"30"},"geometry":{"type":"LineString","coordinates":[[-94.6,33.392],[-94.441,33.475],[-94.068,33.454]]}},{"type":"Feature","properties":{"cls":"interstate","name":"49"},"geometry":{"type":"LineString","coordinates":[[-93.747,32.497],[-93.76,32.259],[-93.629,32.145],[-93.547,32.023],[-93.455,31.971],[-93.406,31.914],[-93.307,31.864],[-93.146,31.737],[-93.092,31.648],[-92.974,31.539],[-92.779,31.457],[-92.647,31.369],[-92.503,31.329],[-92.434,31.29]]}},{"type":"Feature","properties":{"cls":"us","name":"165"},"geometry":{"type":"LineString","coordinates":[[-92.989,30.24],[-92.875,30.445],[-92.758,30.61],[-92.637,30.901],[-92.512,31.087],[-92.498,31.141],[-92.512,31.205],[-92.434,31.29]]}},{"type":"Feature","properties":{"cls":"us","name":"82"},"geometry":{"type":"LineString","coordinates":[[-88.4,33.513],[-88.507,33.48],[-88.66,33.491]]}},{"type":"Feature","properties":{"cls":"interstate","name":"55"},"geometry":{"type":"LineString","coordinates":[[-89.783,33.6],[-89.763,33.487]]}},{"type":"Feature","properties":{"cls":"us","name":"65"},"geometry":{"type":"LineString","coordinates":[[-91.385,33.548],[-91.384,33.6]]}},{"type":"Feature","properties":{"cls":"us","name":"82"},"geometry":{"type":"LineString","coordinates":[[-90.864,33.406],[-90.666,33.456],[-90.431,33.461],[-90.317,33.525],[-90.24,33.532],[-90.18,33.503],[-90.089,33.512],[-89.763,33.487]]}},{"type":"Feature","properties":{"cls":"us","name":"49"},"geometry":{"type":"LineString","coordinates":[[-90.864,33.406],[-90.874,33.43],[-90.771,33.6]]}},{"type":"Feature","properties":{"cls":"us","name":"71"},"geometry":{"type":"LineString","coordinates":[[-94.055,33.6],[-94.04,33.584],[-94.044,33.557]]}},{"type":"Feature","properties":{"cls":"us","name":"65"},"geometry":{"type":"LineString","coordinates":[[-91.295,33.329],[-91.385,33.548]]}},{"type":"Feature","properties":{"cls":"us","name":"82"},"geometry":{"type":"LineString","coordinates":[[-91.154,33.294],[-91.117,33.308],[-91.048,33.395],[-90.864,33.406]]}},{"type":"Feature","properties":{"cls":"us","name":"82"},"geometry":{"type":"LineString","coordinates":[[-91.295,33.329],[-91.295,33.307],[-91.253,33.277]]}},{"type":"Feature","properties":{"cls":"us","name":"82"},"geometry":{"type":"LineString","coordinates":[[-91.491,33.294],[-91.295,33.329]]}},{"type":"Feature","properties":{"cls":"us","name":"165"},"geometry":{"type":"LineString","coordinates":[[-91.385,33.548],[-91.428,33.515],[-91.451,33.43],[-91.489,33.362],[-91.491,33.294]]}},{"type":"Feature","properties":{"cls":"us","name":"82"},"geometry":{"type":"LineString","coordinates":[[-91.253,33.277],[-91.178,33.274],[-91.154,33.294]]}},{"type":"Feature","properties":{"cls":"us","name":"71"},"geometry":{"type":"LineString","coordinates":[[-94.044,33.557],[-94.047,33.468]]}},{"type":"Feature","properties":{"cls":"us","name":"71"},"geometry":{"type":"LineString","coordinates":[[-94.045,33.44],[-94.068,33.454]]}},{"type":"Feature","properties":{"cls":"us","name":"71"},"geometry":{"type":"LineString","coordinates":[[-94.033,33.433],[-94.045,33.44]]}},{"type":"Feature","properties":{"cls":"us","name":"82"},"geometry":{"type":"LineString","coordinates":[[-94.033,33.433],[-93.748,33.413],[-93.736,33.38],[-93.7,33.352],[-93.523,33.367],[-93.333,33.348],[-93.262,33.298],[-93.215,33.298],[-93.217,33.265],[-92.986,33.248],[-92.927,33.216],[-92.703,33.208],[-92.696,33.19],[-92.613,33.19],[-92.51,33.14],[-92.347,33.103],[-92.142,33.152],[-91.821,33.135],[-91.798,33.232],[-91.635,33.294],[-91.491,33.294]]}},{"type":"Feature","properties":{"cls":"us","name":"65"},"geometry":{"type":"LineString","coordinates":[[-91.253,33.277],[-91.263,33.152],[-91.213,33.043],[-91.216,33.004]]}},{"type":"Feature","properties":{"cls":"us","name":"165"},"geometry":{"type":"LineString","coordinates":[[-91.611,33.006],[-91.548,33.093],[-91.491,33.294]]}},{"type":"Feature","properties":{"cls":"us","name":"71"},"geometry":{"type":"LineString","coordinates":[[-94.033,33.433],[-94.031,33.406],[-93.889,33.267],[-93.88,33.201],[-93.903,33.079]]}},{"type":"Feature","properties":{"cls":"interstate","name":"20"},"geometry":{"type":"LineString","coordinates":[[-88.403,32.45],[-88.4,32.452]]}},{"type":"Feature","properties":{"cls":"us","name":"80"},"geometry":{"type":"LineString","coordinates":[[-88.4,32.424],[-88.407,32.424]]}},{"type":"Feature","properties":{"cls":"interstate","name":"20"},"geometry":{"type":"LineString","coordinates":[[-88.407,32.424],[-88.447,32.426]]}},{"type":"Feature","properties":{"cls":"interstate","name":"20"},"geometry":{"type":"LineString","coordinates":[[-88.447,32.426],[-88.403,32.45]]}},{"type":"Feature","properties":{"cls":"interstate","name":"20"},"geometry":{"type":"LineString","coordinates":[[-88.634,32.384],[-88.447,32.426]]}},{"type":"Feature","properties":{"cls":"us","name":"45"},"geometry":{"type":"LineString","coordinates":[[-88.66,33.491],[-88.641,33.35],[-88.584,33.253],[-88.566,33.162],[-88.54,33.129],[-88.565,33.074],[-88.559,32.977],[-88.452,32.81],[-88.49,32.676],[-88.509,32.525],[-88.575,32.499],[-88.624,32.456],[-88.639,32.437],[-88.634,32.384]]}},{"type":"Feature","properties":{"cls":"interstate","name":"20"},"geometry":{"type":"LineString","coordinates":[[-88.634,32.384],[-88.717,32.348]]}},{"type":"Feature","properties":{"cls":"interstate","name":"20"},"geometry":{"type":"LineString","coordinates":[[-88.717,32.348],[-88.766,32.341]]}},{"type":"Feature","properties":{"cls":"us","name":"165"},"geometry":{"type":"LineString","coordinates":[[-92.081,32.485],[-92.085,32.544],[-92.045,32.688],[-92.015,32.702],[-91.965,32.768],[-91.803,32.78],[-91.769,32.853],[-91.685,32.905],[-91.611,33.006]]}},{"type":"Feature","properties":{"cls":"us","name":"65"},"geometry":{"type":"LineString","coordinates":[[-91.216,33.004],[-91.225,32.838],[-91.176,32.801],[-91.185,32.577],[-91.147,32.463],[-91.199,32.397]]}},{"type":"Feature","properties":{"cls":"interstate","name":"20"},"geometry":{"type":"LineString","coordinates":[[-92.048,32.496],[-91.529,32.449],[-91.262,32.414],[-91.201,32.393]]}},{"type":"Feature","properties":{"cls":"us","name":"61"},"geometry":{"type":"LineString","coordinates":[[-90.864,33.406],[-90.866,33.263],[-90.831,33.176],[-90.881,33.096],[-90.822,32.973],[-90.909,32.852],[-90.944,32.718],[-90.918,32.673],[-90.871,32.657],[-90.824,32.549],[-90.805,32.483],[-90.819,32.343]]}},{"type":"Feature","properties":{"cls":"interstate","name":"55"},"geometry":{"type":"LineString","coordinates":[[-89.763,33.487],[-89.799,33.242],[-89.888,33.114],[-89.898,33.076],[-89.942,33.031],[-89.975,32.945],[-90.053,32.846],[-90.074,32.595],[-90.148,32.454],[-90.154,32.36],[-90.178,32.277]]}},{"type":"Feature","properties":{"cls":"interstate","name":"20"},"geometry":{"type":"LineString","coordinates":[[-88.766,32.341],[-88.825,32.353],[-89.068,32.35],[-89.429,32.322],[-89.52,32.341],[-89.869,32.277],[-90.178,32.277]]}},{"type":"Feature","properties":{"cls":"interstate","name":"20"},"geometry":{"type":"LineString","coordinates":[[-93.601,32.541],[-93.517,32.551],[-93.481,32.579],[-93.333,32.595],[-93.161,32.565],[-92.951,32.57],[-92.05,32.496]]}},{"type":"Feature","properties":{"cls":"us","name":"71"},"geometry":{"type":"LineString","coordinates":[[-93.894,33.02],[-93.887,32.909],[-93.853,32.836],[-93.842,32.668],[-93.747,32.497]]}},{"type":"Feature","properties":{"cls":"us","name":"59"},"geometry":{"type":"LineString","coordinates":[[-94.068,33.454],[-94.063,33.409],[-94.113,33.381],[-94.148,33.34],[-94.156,33.15],[-94.184,33.112],[-94.367,33.001],[-94.368,32.805],[-94.337,32.61],[-94.358,32.49]]}},{"type":"Feature","properties":{"cls":"interstate","name":"20"},"geometry":{"type":"LineString","coordinates":[[-94.358,32.49],[-94.144,32.485],[-93.981,32.449]]}},{"type":"Feature","properties":{"cls":"interstate","name":"20"},"geometry":{"type":"LineString","coordinates":[[-93.747,32.497],[-93.88,32.444],[-93.981,32.449]]}},{"type":"Feature","properties":{"cls":"interstate","name":"20"},"geometry":{"type":"LineString","coordinates":[[-94.358,32.49],[-94.6,32.469]]}},{"type":"Feature","properties":{"cls":"us","name":"79"},"geometry":{"type":"LineString","coordinates":[[-94.044,32.372],[-94.0,32.404],[-93.981,32.449]]}},{"type":"Feature","properties":{"cls":"us","name":"79"},"geometry":{"type":"LineString","coordinates":[[-94.6,32.148],[-94.514,32.143],[-94.297,32.167],[-94.217,32.228],[-94.13,32.327],[-94.044,32.372]]}},{"type":"Feature","properties":{"cls":"us","name":"65"},"geometry":{"type":"LineString","coordinates":[[-91.555,31.631],[-91.539,31.718],[-91.395,31.81],[-91.355,31.876],[-91.282,31.942],[-91.26,32.006],[-91.234,32.209],[-91.206,32.261],[-91.223,32.32],[-91.201,32.393]]}},{"type":"Feature","properties":{"cls":"interstate","name":"59"},"geometry":{"type":"LineString","coordinates":[[-88.766,32.341],[-88.862,32.181],[-88.921,32.013],[-89.044,31.874],[-89.058,31.77],[-89.32,31.494],[-89.318,31.395],[-89.35,31.36]]}},{"type":"Feature","properties":{"cls":"us","name":"49"},"geometry":{"type":"LineString","coordinates":[[-89.35,31.36],[-89.468,31.49],[-89.558,31.645]]}},{"type":"Feature","properties":{"cls":"us","name":"49"},"geometry":{"type":"LineString","coordinates":[[-89.558,31.645],[-89.669,31.765],[-89.723,31.853],[-90.129,32.159],[-90.178,32.277]]}},{"type":"Feature","properties":{"cls":"us","name":"65"},"geometry":{"type":"LineString","coordinates":[[-91.555,31.631],[-91.498,31.582],[-91.427,31.561]]}},{"type":"Feature","properties":{"cls":"us","name":"84"},"geometry":{"type":"LineString","coordinates":[[-91.388,31.53],[-91.364,31.56],[-91.298,31.579],[-91.206,31.546],[-91.138,31.547],[-91.086,31.514],[-90.97,31.476],[-90.873,31.469],[-90.69,31.525],[-90.645,31.513],[-90.478,31.542]]}},{"type":"Feature","properties":{"cls":"interstate","name":"55"},"geometry":{"type":"LineString","coordinates":[[-90.478,31.542],[-90.478,31.148],[-90.508,30.987]]}},{"type":"Feature","properties":{"cls":"us","name":"61"},"geometry":{"type":"LineString","coordinates":[[-91.388,31.53],[-91.367,31.499],[-91.394,31.376],[-91.355,31.325],[-91.355,31.292],[-91.295,31.228],[-91.274,31.148],[-91.35,30.987]]}},{"type":"Feature","properties":{"cls":"interstate","name":"10"},"geometry":{"type":"LineString","coordinates":[[-88.4,30.477],[-88.533,30.44],[-88.618,30.434],[-88.704,30.433],[-88.783,30.459],[-88.924,30.448],[-88.966,30.462],[-89.096,30.436]]}},{"type":"Feature","properties":{"cls":"us","name":"49"},"geometry":{"type":"LineString","coordinates":[[-89.35,31.36],[-89.287,31.273],[-89.219,31.124],[-89.204,30.988],[-89.138,30.842],[-89.129,30.594],[-89.096,30.436]]}},{"type":"Feature","properties":{"cls":"interstate","name":"59"},"geometry":{"type":"LineString","coordinates":[[-89.35,31.36],[-89.355,31.283],[-89.323,31.228],[-89.41,31.007],[-89.518,30.794],[-89.525,30.75],[-89.685,30.469]]}},{"type":"Feature","properties":{"cls":"interstate","name":"55"},"geometry":{"type":"LineString","coordinates":[[-90.508,30.987],[-90.53,30.901],[-90.534,30.688],[-90.49,30.481]]}},{"type":"Feature","properties":{"cls":"interstate","name":"12"},"geometry":{"type":"LineString","coordinates":[[-90.49,30.481],[-90.261,30.481],[-90.084,30.429]]}},{"type":"Feature","properties":{"cls":"interstate","name":"10"},"geometry":{"type":"LineString","coordinates":[[-89.624,30.308],[-89.292,30.405],[-89.096,30.436]]}},{"type":"Feature","properties":{"cls":"interstate","name":"59"},"geometry":{"type":"LineString","coordinates":[[-89.685,30.469],[-89.74,30.377],[-89.742,30.308]]}},{"type":"Feature","properties":{"cls":"interstate","name":"12"},"geometry":{"type":"LineString","coordinates":[[-90.084,30.429],[-89.862,30.327],[-89.742,30.308]]}},{"type":"Feature","properties":{"cls":"interstate","name":"10"},"geometry":{"type":"LineString","coordinates":[[-89.742,30.308],[-89.676,30.297],[-89.624,30.308]]}},{"type":"Feature","properties":{"cls":"us","name":"61"},"geometry":{"type":"LineString","coordinates":[[-91.35,30.987],[-91.34,30.924],[-91.39,30.827],[-91.385,30.797],[-91.279,30.747],[-91.267,30.676],[-91.149,30.492],[-91.152,30.405]]}},{"type":"Feature","properties":{"cls":"interstate","name":"12"},"geometry":{"type":"LineString","coordinates":[[-91.123,30.391],[-91.058,30.433],[-90.895,30.467],[-90.49,30.481]]}},{"type":"Feature","properties":{"cls":"interstate","name":"10"},"geometry":{"type":"LineString","coordinates":[[-91.152,30.405],[-91.123,30.391]]}},{"type":"Feature","properties":{"cls":"interstate","name":"10"},"geometry":{"type":"LineString","coordinates":[[-91.152,30.405],[-91.284,30.453],[-91.338,30.448],[-92.015,30.261]]}},{"type":"Feature","properties":{"cls":"interstate","name":"49"},"geometry":{"type":"LineString","coordinates":[[-92.015,30.261],[-92.074,30.467],[-92.05,30.636],[-92.09,30.703],[-92.208,30.799],[-92.227,30.829],[-92.231,30.894],[-92.291,30.967],[-92.378,31.011],[-92.432,31.073],[-92.434,31.29]]}},{"type":"Feature","properties":{"cls":"interstate","name":"55"},"geometry":{"type":"LineString","coordinates":[[-90.438,30.089],[-90.454,30.156],[-90.39,30.302],[-90.411,30.365],[-90.49,30.481]]}},{"type":"Feature","properties":{"cls":"interstate","name":"10"},"geometry":{"type":"LineString","coordinates":[[-89.742,30.308],[-89.77,30.238],[-89.917,30.082],[-90.065,29.971]]}},{"type":"Feature","properties":{"cls":"interstate","name":"10"},"geometry":{"type":"LineString","coordinates":[[-94.6,29.83],[-94.394,29.826],[-94.264,29.931],[-94.139,30.059]]}},{"type":"Feature","properties":{"cls":"interstate","name":"10"},"geometry":{"type":"LineString","coordinates":[[-90.299,29.999],[-90.223,30.009],[-90.062,29.976]]}},{"type":"Feature","properties":{"cls":"interstate","name":"310"},"geometry":{"type":"LineString","coordinates":[[-90.4,29.886],[-90.411,29.915],[-90.383,29.948],[-90.299,29.999]]}},{"type":"Feature","properties":{"cls":"us","name":"90"},"geometry":{"type":"LineString","coordinates":[[-90.4,29.89],[-90.27,29.922],[-90.171,29.907]]}},{"type":"Feature","properties":{"cls":"us","name":"90"},"geometry":{"type":"LineString","coordinates":[[-90.065,29.971],[-90.077,29.943],[-90.035,29.92],[-90.072,29.894]]}},{"type":"Feature","properties":{"cls":"interstate","name":"10"},"geometry":{"type":"LineString","coordinates":[[-90.297,30.002],[-90.369,30.063],[-90.44,30.086]]}},{"type":"Feature","properties":{"cls":"interstate","name":"220"},"geometry":{"type":"LineString","coordinates":[[-93.874,32.44],[-93.882,32.482],[-93.81,32.614],[-93.629,32.597],[-93.601,32.537]]}},{"type":"Feature","properties":{"cls":"interstate","name":"20"},"geometry":{"type":"LineString","coordinates":[[-93.747,32.497],[-93.703,32.527],[-93.601,32.541]]}},{"type":"Feature","properties":{"cls":"us","name":"84"},"geometry":{"type":"LineString","coordinates":[[-91.987,31.565],[-91.821,31.627],[-91.687,31.606],[-91.555,31.631]]}},{"type":"Feature","properties":{"cls":"us","name":"71"},"geometry":{"type":"LineString","coordinates":[[-93.903,33.079],[-93.894,33.02]]}},{"type":"Feature","properties":{"cls":"us","name":"90"},"geometry":{"type":"LineString","coordinates":[[-90.072,29.894],[-90.131,29.884],[-90.172,29.907]]}},{"type":"Feature","properties":{"cls":"us","name":"98"},"geometry":{"type":"LineString","coordinates":[[-88.419,30.864],[-88.4,30.849]]}},{"type":"Feature","properties":{"cls":"us","name":"132"},"geometry":{"type":"LineString","coordinates":[[-93.244,33.268],[-93.29,33.271],[-93.341,33.247],[-93.459,33.154],[-93.466,33.018]]}},{"type":"Feature","properties":{"cls":"us","name":"278"},"geometry":{"type":"MultiLineString","coordinates":[[[-92.742,33.6],[-92.68,33.559],[-92.353,33.52],[-92.237,33.6]],[[-92.171,33.6],[-92.117,33.6]]]}},{"type":"Feature","properties":{"cls":"us","name":"278"},"geometry":{"type":"LineString","coordinates":[[-92.075,33.588],[-92.053,33.6]]}},{"type":"Feature","properties":{"cls":"us","name":"278"},"geometry":{"type":"LineString","coordinates":[[-92.865,33.586],[-92.839,33.57]]}},{"type":"Feature","properties":{"cls":"us","name":"63"},"geometry":{"type":"LineString","coordinates":[[-92.072,33.6],[-92.075,33.537],[-92.149,33.46],[-92.197,33.435],[-92.232,33.386],[-92.341,33.314],[-92.351,33.275],[-92.471,33.232],[-92.635,33.214]]}},{"type":"Feature","properties":{"cls":"us","name":"167"},"geometry":{"type":"LineString","coordinates":[[-92.649,33.254],[-92.54,33.336],[-92.486,33.402],[-92.468,33.6]]}},{"type":"Feature","properties":{"cls":"us","name":"167"},"geometry":{"type":"LineString","coordinates":[[-92.725,33.015],[-92.68,33.09],[-92.625,33.145],[-92.635,33.187]]}},{"type":"Feature","properties":{"cls":"us","name":"425"},"geometry":{"type":"LineString","coordinates":[[-91.798,33.23],[-91.852,33.36],[-91.85,33.45],[-91.801,33.549],[-91.801,33.6]]}},{"type":"Feature","properties":{"cls":"us","name":"425"},"geometry":{"type":"LineString","coordinates":[[-91.856,33.007],[-91.82,33.135]]}},{"type":"Feature","properties":{"cls":"us","name":"79"},"geometry":{"type":"LineString","coordinates":[[-92.83,33.586],[-92.818,33.598]]}},{"type":"Feature","properties":{"cls":"us","name":"79"},"geometry":{"type":"LineString","coordinates":[[-93.154,33.018],[-93.191,33.091],[-93.188,33.135],[-93.23,33.239],[-93.203,33.344],[-93.127,33.413],[-93.073,33.411],[-93.006,33.474],[-92.936,33.504],[-92.927,33.529],[-92.839,33.57]]}},{"type":"Feature","properties":{"cls":"us","name":"79"},"geometry":{"type":"LineString","coordinates":[[-92.839,33.57],[-92.789,33.6]]}},{"type":"Feature","properties":{"cls":"us","name":"167"},"geometry":{"type":"LineString","coordinates":[[-92.635,33.214],[-92.634,33.242],[-92.649,33.254]]}},{"type":"Feature","properties":{"cls":"us","name":"63"},"geometry":{"type":"LineString","coordinates":[[-92.635,33.187],[-92.635,33.214]]}},{"type":"Feature","properties":{"cls":"us","name":"167"},"geometry":{"type":"LineString","coordinates":[[-92.311,30.701],[-92.312,30.745],[-92.356,30.832],[-92.412,30.876],[-92.395,30.989],[-92.375,31.016]]}},{"type":"Feature","properties":{"cls":"us","name":"167"},"geometry":{"type":"LineString","coordinates":[[-92.194,30.659],[-92.07,30.587]]}},{"type":"Feature","properties":{"cls":"us","name":"371"},"geometry":{"type":"LineString","coordinates":[[-93.338,32.595],[-93.434,32.84],[-93.458,32.975]]}},{"type":"Feature","properties":{"cls":"us","name":"71"},"geometry":{"type":"LineString","coordinates":[[-91.814,30.547],[-91.976,30.731],[-92.066,30.807],[-92.217,30.991],[-92.369,31.053]]}},{"type":"Feature","properties":{"cls":"us","name":"90"},"geometry":{"type":"LineString","coordinates":[[-89.831,30.067],[-89.808,30.065],[-89.768,30.094],[-89.739,30.165],[-89.672,30.231],[-89.615,30.239]]}},{"type":"Feature","properties":{"cls":"us","name":"90"},"geometry":{"type":"LineString","coordinates":[[-92.655,30.231],[-92.626,30.197],[-92.558,30.18],[-92.439,30.182],[-92.378,30.207]]}},{"type":"Feature","properties":{"cls":"us","name":"167"},"geometry":{"type":"LineString","coordinates":[[-92.142,29.976],[-92.124,30.001],[-92.124,30.115],[-92.052,30.201],[-92.01,30.224]]}},{"type":"Feature","properties":{"cls":"us","name":"167"},"geometry":{"type":"LineString","coordinates":[[-92.311,30.701],[-92.194,30.659]]}},{"type":"Feature","properties":{"cls":"us","name":"171"},"geometry":{"type":"LineString","coordinates":[[-93.181,30.234],[-93.181,30.246]]}},{"type":"Feature","properties":{"cls":"us","name":"190"},"geometry":{"type":"LineString","coordinates":[[-91.181,30.449],[-90.973,30.464],[-90.956,30.481]]}},{"type":"Feature","properties":{"cls":"us","name":"190"},"geometry":{"type":"LineString","coordinates":[[-90.085,30.429],[-90.088,30.476]]}},{"type":"Feature","properties":{"cls":"us","name":"51"},"geometry":{"type":"LineString","coordinates":[[-90.481,30.067],[-90.438,30.092]]}},{"type":"Feature","properties":{"cls":"us","name":"51"},"geometry":{"type":"LineString","coordinates":[[-90.457,30.479],[-90.461,30.503]]}},{"type":"Feature","properties":{"cls":"us","name":"371"},"geometry":{"type":"LineString","coordinates":[[-93.458,32.975],[-93.466,33.018]]}},{"type":"Feature","properties":{"cls":"us","name":"80"},"geometry":{"type":"LineString","coordinates":[[-93.743,32.519],[-93.62,32.556],[-93.338,32.595]]}},{"type":"Feature","properties":{"cls":"us","name":"80"},"geometry":{"type":"LineString","coordinates":[[-93.32,32.604],[-93.29,32.613]]}},{"type":"Feature","properties":{"cls":"us","name":"90"},"geometry":{"type":"LineString","coordinates":[[-90.013,30.01],[-89.899,30.04],[-89.862,30.074],[-89.831,30.067]]}},{"type":"Feature","properties":{"cls":"us","name":"90"},"geometry":{"type":"LineString","coordinates":[[-93.191,30.237],[-93.166,30.236]]}},{"type":"Feature","properties":{"cls":"us","name":"90"},"geometry":{"type":"LineString","coordinates":[[-92.378,30.207],[-92.363,30.215]]}},{"type":"Feature","properties":{"cls":"us","name":"90"},"geometry":{"type":"LineString","coordinates":[[-92.664,30.231],[-92.655,30.231]]}},{"type":"Feature","properties":{"cls":"us","name":"90"},"geometry":{"type":"LineString","coordinates":[[-93.377,30.237],[-93.359,30.237]]}},{"type":"Feature","properties":{"cls":"us","name":"167"},"geometry":{"type":"LineString","coordinates":[[-92.375,31.016],[-92.369,31.053]]}},{"type":"Feature","properties":{"cls":"us","name":"167"},"geometry":{"type":"LineString","coordinates":[[-92.653,31.946],[-92.661,32.085],[-92.703,32.154],[-92.713,32.241]]}},{"type":"Feature","properties":{"cls":"us","name":"167"},"geometry":{"type":"LineString","coordinates":[[-92.723,32.276],[-92.698,32.312],[-92.706,32.342],[-92.722,32.348],[-92.688,32.423],[-92.647,32.466],[-92.638,32.523]]}},{"type":"Feature","properties":{"cls":"us","name":"167"},"geometry":{"type":"LineString","coordinates":[[-92.658,32.816],[-92.656,32.689],[-92.64,32.635],[-92.649,32.592]]}},{"type":"Feature","properties":{"cls":"us","name":"167"},"geometry":{"type":"LineString","coordinates":[[-92.725,33.015],[-92.658,32.937],[-92.658,32.816]]}},{"type":"Feature","properties":{"cls":"us","name":"167"},"geometry":{"type":"LineString","coordinates":[[-92.469,31.409],[-92.486,31.435],[-92.493,31.511],[-92.568,31.674],[-92.584,31.874],[-92.623,31.922]]}},{"type":"Feature","properties":{"cls":"us","name":"171"},"geometry":{"type":"LineString","coordinates":[[-93.2,30.33],[-93.2,30.373],[-93.233,30.403],[-93.242,30.825]]}},{"type":"Feature","properties":{"cls":"us","name":"171"},"geometry":{"type":"LineString","coordinates":[[-93.265,31.136],[-93.263,31.155],[-93.336,31.231],[-93.356,31.288],[-93.437,31.381],[-93.456,31.435],[-93.458,31.545],[-93.48,31.569],[-93.643,31.632],[-93.713,31.729],[-93.683,31.82],[-93.725,31.965],[-93.713,32.028]]}},{"type":"Feature","properties":{"cls":"us","name":"190"},"geometry":{"type":"LineString","coordinates":[[-92.852,30.482],[-92.501,30.481],[-92.191,30.517]]}},{"type":"Feature","properties":{"cls":"us","name":"190"},"geometry":{"type":"LineString","coordinates":[[-93.233,30.509],[-92.996,30.518],[-92.846,30.491]]}},{"type":"Feature","properties":{"cls":"us","name":"190"},"geometry":{"type":"LineString","coordinates":[[-93.609,30.747],[-93.558,30.751],[-93.504,30.84],[-93.289,30.847]]}},{"type":"Feature","properties":{"cls":"us","name":"190"},"geometry":{"type":"LineString","coordinates":[[-92.187,30.517],[-92.004,30.548],[-91.749,30.547]]}},{"type":"Feature","properties":{"cls":"us","name":"190"},"geometry":{"type":"LineString","coordinates":[[-91.749,30.547],[-91.659,30.557],[-91.438,30.544]]}},{"type":"Feature","properties":{"cls":"us","name":"425"},"geometry":{"type":"LineString","coordinates":[[-91.901,32.804],[-91.861,32.889],[-91.856,33.007]]}},{"type":"Feature","properties":{"cls":"us","name":"71"},"geometry":{"type":"LineString","coordinates":[[-93.339,32.025],[-93.281,31.992],[-93.169,31.961],[-92.999,31.779],[-92.94,31.755],[-92.892,31.669],[-92.849,31.628],[-92.688,31.541],[-92.558,31.433],[-92.469,31.409]]}},{"type":"Feature","properties":{"cls":"us","name":"71"},"geometry":{"type":"LineString","coordinates":[[-93.339,32.033],[-93.392,32.109],[-93.39,32.187],[-93.42,32.233],[-93.472,32.255],[-93.625,32.412]]}},{"type":"Feature","properties":{"cls":"us","name":"79"},"geometry":{"type":"LineString","coordinates":[[-93.076,32.758],[-93.055,32.81]]}},{"type":"Feature","properties":{"cls":"us","name":"79"},"geometry":{"type":"LineString","coordinates":[[-93.248,32.628],[-93.187,32.688]]}},{"type":"Feature","properties":{"cls":"us","name":"79"},"geometry":{"type":"LineString","coordinates":[[-93.139,32.963],[-93.154,33.018]]}},{"type":"Feature","properties":{"cls":"us","name":"80"},"geometry":{"type":"LineString","coordinates":[[-93.981,32.444],[-93.949,32.444]]}},{"type":"Feature","properties":{"cls":"us","name":"84"},"geometry":{"type":"LineString","coordinates":[[-92.623,31.922],[-92.595,31.941],[-92.481,31.894],[-92.407,31.841],[-92.333,31.831],[-92.211,31.705],[-92.116,31.683],[-91.997,31.574]]}},{"type":"Feature","properties":{"cls":"us","name":"84"},"geometry":{"type":"LineString","coordinates":[[-94.006,31.973],[-93.936,31.958],[-93.766,31.985],[-93.724,32.027]]}},{"type":"Feature","properties":{"cls":"us","name":"84"},"geometry":{"type":"LineString","coordinates":[[-93.028,31.82],[-92.933,31.82],[-92.782,31.901],[-92.652,31.927]]}},{"type":"Feature","properties":{"cls":"us","name":"84"},"geometry":{"type":"LineString","coordinates":[[-93.327,32.016],[-93.381,32.006],[-93.422,32.061],[-93.469,32.085],[-93.695,32.037]]}},{"type":"Feature","properties":{"cls":"us","name":"84"},"geometry":{"type":"LineString","coordinates":[[-92.596,31.941],[-92.595,31.941]]}},{"type":"Feature","properties":{"cls":"us","name":"165"},"geometry":{"type":"LineString","coordinates":[[-92.469,31.275],[-92.48,31.297],[-92.469,31.318]]}},{"type":"Feature","properties":{"cls":"us","name":"167"},"geometry":{"type":"LineString","coordinates":[[-92.43,31.242],[-92.45,31.261]]}},{"type":"Feature","properties":{"cls":"us","name":"167"},"geometry":{"type":"LineString","coordinates":[[-92.713,32.241],[-92.723,32.276]]}},{"type":"Feature","properties":{"cls":"us","name":"167"},"geometry":{"type":"LineString","coordinates":[[-92.638,32.531],[-92.649,32.592]]}},{"type":"Feature","properties":{"cls":"us","name":"167"},"geometry":{"type":"LineString","coordinates":[[-92.652,31.927],[-92.653,31.946]]}},{"type":"Feature","properties":{"cls":"us","name":"171"},"geometry":{"type":"LineString","coordinates":[[-93.181,30.246],[-93.2,30.33]]}},{"type":"Feature","properties":{"cls":"us","name":"171"},"geometry":{"type":"LineString","coordinates":[[-93.242,30.825],[-93.26,30.849],[-93.289,30.847],[-93.265,31.136]]}},{"type":"Feature","properties":{"cls":"us","name":"171"},"geometry":{"type":"LineString","coordinates":[[-93.71,32.037],[-93.807,32.079],[-93.84,32.151],[-93.819,32.275],[-93.83,32.353],[-93.788,32.418],[-93.78,32.481]]}},{"type":"Feature","properties":{"cls":"us","name":"190"},"geometry":{"type":"LineString","coordinates":[[-91.438,30.544],[-91.267,30.488],[-91.212,30.506]]}},{"type":"Feature","properties":{"cls":"us","name":"425"},"geometry":{"type":"LineString","coordinates":[[-91.915,32.777],[-91.901,32.804]]}},{"type":"Feature","properties":{"cls":"us","name":"71"},"geometry":{"type":"LineString","coordinates":[[-92.369,31.053],[-92.401,31.097],[-92.43,31.242]]}},{"type":"Feature","properties":{"cls":"us","name":"71"},"geometry":{"type":"LineString","coordinates":[[-93.625,32.412],[-93.715,32.513]]}},{"type":"Feature","properties":{"cls":"us","name":"71"},"geometry":{"type":"LineString","coordinates":[[-92.45,31.261],[-92.465,31.273]]}},{"type":"Feature","properties":{"cls":"us","name":"79"},"geometry":{"type":"LineString","coordinates":[[-93.286,32.616],[-93.248,32.628]]}},{"type":"Feature","properties":{"cls":"us","name":"79"},"geometry":{"type":"LineString","coordinates":[[-93.187,32.688],[-93.076,32.758]]}},{"type":"Feature","properties":{"cls":"us","name":"79"},"geometry":{"type":"LineString","coordinates":[[-93.055,32.81],[-93.078,32.892],[-93.139,32.963]]}},{"type":"Feature","properties":{"cls":"us","name":"80"},"geometry":{"type":"LineString","coordinates":[[-92.638,32.523],[-92.638,32.531]]}},{"type":"Feature","properties":{"cls":"us","name":"80"},"geometry":{"type":"LineString","coordinates":[[-93.29,32.613],[-93.286,32.616]]}},{"type":"Feature","properties":{"cls":"us","name":"84"},"geometry":{"type":"LineString","coordinates":[[-92.623,31.922],[-92.652,31.927]]}},{"type":"Feature","properties":{"cls":"us","name":"84"},"geometry":{"type":"LineString","coordinates":[[-93.724,32.027],[-93.695,32.037]]}},{"type":"Feature","properties":{"cls":"us","name":"167"},"geometry":{"type":"LineString","coordinates":[[-92.414,31.355],[-92.469,31.409]]}},{"type":"Feature","properties":{"cls":"interstate","name":"210"},"geometry":{"type":"LineString","coordinates":[[-93.302,30.228],[-93.274,30.195],[-93.175,30.197],[-93.162,30.246]]}},{"type":"Feature","properties":{"cls":"interstate","name":"220"},"geometry":{"type":"LineString","coordinates":[[-93.843,32.457],[-93.774,32.557],[-93.643,32.559],[-93.631,32.54]]}},{"type":"Feature","properties":{"cls":"us","name":"49E"},"geometry":{"type":"LineString","coordinates":[[-90.388,32.886],[-90.358,32.951],[-90.316,32.976],[-90.33,33.04],[-90.321,33.085],[-90.267,33.117],[-90.221,33.178],[-90.221,33.281],[-90.239,33.336],[-90.204,33.408],[-90.21,33.469],[-90.183,33.504]]}},{"type":"Feature","properties":{"cls":"us","name":"49E"},"geometry":{"type":"LineString","coordinates":[[-90.24,33.531],[-90.278,33.6]]}},{"type":"Feature","properties":{"cls":"us","name":"49W"},"geometry":{"type":"LineString","coordinates":[[-90.387,32.84],[-90.544,32.895],[-90.586,32.93],[-90.589,32.996],[-90.572,33.054],[-90.5,33.097]]}},{"type":"Feature","properties":{"cls":"us","name":"51"},"geometry":{"type":"LineString","coordinates":[[-90.13,32.429],[-90.008,32.665],[-89.97,32.84],[-89.973,32.889],[-89.914,32.961],[-89.88,33.046],[-89.735,33.278],[-89.732,33.308],[-89.762,33.383],[-89.735,33.465],[-89.736,33.52],[-89.702,33.562],[-89.699,33.6]]}},{"type":"Feature","properties":{"cls":"us","name":"90"},"geometry":{"type":"LineString","coordinates":[[-89.615,30.239],[-89.503,30.301]]}},{"type":"Feature","properties":{"cls":"us","name":"11"},"geometry":{"type":"LineString","coordinates":[[-89.337,31.26],[-89.316,31.308]]}},{"type":"Feature","properties":{"cls":"us","name":"45"},"geometry":{"type":"LineString","coordinates":[[-88.573,33.236],[-88.491,33.484]]}},{"type":"Feature","properties":{"cls":"us","name":"49"},"geometry":{"type":"LineString","coordinates":[[-90.385,32.837],[-90.387,32.84]]}},{"type":"Feature","properties":{"cls":"us","name":"49E"},"geometry":{"type":"LineString","coordinates":[[-90.387,32.84],[-90.388,32.886]]}},{"type":"Feature","properties":{"cls":"us","name":"49W"},"geometry":{"type":"LineString","coordinates":[[-90.632,33.457],[-90.586,33.514],[-90.533,33.54],[-90.521,33.6]]}},{"type":"Feature","properties":{"cls":"us","name":"98"},"geometry":{"type":"LineString","coordinates":[[-90.859,31.46],[-90.844,31.396],[-90.816,31.369],[-90.644,31.367],[-90.478,31.288]]}},{"type":"Feature","properties":{"cls":"us","name":"98"},"geometry":{"type":"LineString","coordinates":[[-89.276,31.246],[-89.237,31.246],[-89.162,31.212],[-88.989,31.2],[-88.941,31.182],[-88.82,31.101],[-88.775,31.103],[-88.657,30.962],[-88.54,30.949],[-88.419,30.864]]}},{"type":"Feature","properties":{"cls":"us","name":"49W"},"geometry":{"type":"LineString","coordinates":[[-90.5,33.097],[-90.475,33.049],[-90.473,32.996],[-90.405,32.891],[-90.388,32.886]]}},{"type":"Feature","properties":{"cls":"us","name":"45"},"geometry":{"type":"LineString","coordinates":[[-88.431,33.505],[-88.439,33.538],[-88.424,33.6]]}},{"type":"Feature","properties":{"cls":"us","name":"49"},"geometry":{"type":"LineString","coordinates":[[-90.236,32.36],[-90.294,32.418],[-90.288,32.477],[-90.325,32.565],[-90.366,32.607],[-90.372,32.809],[-90.385,32.837]]}},{"type":"Feature","properties":{"cls":"us","name":"49W"},"geometry":{"type":"LineString","coordinates":[[-90.5,33.097],[-90.517,33.138],[-90.497,33.187],[-90.572,33.233],[-90.589,33.265],[-90.59,33.372],[-90.63,33.41],[-90.632,33.457]]}},{"type":"Feature","properties":{"cls":"us","name":"90"},"geometry":{"type":"LineString","coordinates":[[-89.503,30.301],[-89.41,30.298],[-89.342,30.319],[-89.282,30.304],[-89.065,30.375],[-88.857,30.393],[-88.835,30.415],[-88.536,30.373],[-88.442,30.433],[-88.419,30.466]]}},{"type":"Feature","properties":{"cls":"us","name":"98"},"geometry":{"type":"LineString","coordinates":[[-90.482,31.221],[-90.444,31.233],[-90.228,31.169],[-90.173,31.131],[-90.1,31.131]]}},{"type":"Feature","properties":{"cls":"us","name":"98"},"geometry":{"type":"LineString","coordinates":[[-90.1,31.13],[-90.032,31.182],[-89.856,31.239],[-89.63,31.288],[-89.352,31.326]]}},{"type":"Feature","properties":{"cls":"us","name":"98"},"geometry":{"type":"LineString","coordinates":[[-89.324,31.239],[-89.276,31.246]]}},{"type":"Feature","properties":{"cls":"interstate","name":"110"},"geometry":{"type":"LineString","coordinates":[[-88.893,30.394],[-88.896,30.452]]}},{"type":"Feature","properties":{"cls":"us","name":"67"},"geometry":{"type":"LineString","coordinates":[[-94.044,33.429],[-94.15,33.41],[-94.374,33.324],[-94.444,33.321],[-94.456,33.338],[-94.518,33.347],[-94.6,33.282]]}},{"type":"Feature","properties":{"cls":"us","name":"84"},"geometry":{"type":"LineString","coordinates":[[-94.6,31.922],[-94.492,31.924],[-94.407,31.901]]}},{"type":"Feature","properties":{"cls":"us","name":"190"},"geometry":{"type":"LineString","coordinates":[[-94.6,30.751],[-94.407,30.775],[-94.311,30.831],[-94.159,30.853],[-93.979,30.919],[-93.936,30.916],[-93.758,30.843],[-93.659,30.744],[-93.609,30.747]]}},{"type":"Feature","properties":{"cls":"us","name":"287"},"geometry":{"type":"LineString","coordinates":[[-94.6,30.926],[-94.537,30.858],[-94.416,30.781]]}},{"type":"Feature","properties":{"cls":"us","name":"59"},"geometry":{"type":"LineString","coordinates":[[-94.236,31.947],[-94.407,31.901]]}},{"type":"Feature","properties":{"cls":"us","name":"59B"},"geometry":{"type":"LineString","coordinates":[[-94.338,32.182],[-94.332,32.131]]}},{"type":"Feature","properties":{"cls":"us","name":"69"},"geometry":{"type":"LineString","coordinates":[[-94.6,31.284],[-94.571,31.273],[-94.552,31.239],[-94.432,31.17],[-94.432,31.071],[-94.405,31.047],[-94.396,31.012],[-94.419,30.943],[-94.429,30.817],[-94.414,30.781],[-94.428,30.731],[-94.386,30.669],[-94.408,30.615],[-94.39,30.464]]}},{"type":"Feature","properties":{"cls":"us","name":"69"},"geometry":{"type":"LineString","coordinates":[[-94.281,30.342],[-94.195,30.225]]}},{"type":"Feature","properties":{"cls":"us","name":"80"},"geometry":{"type":"LineString","coordinates":[[-94.396,32.548],[-94.35,32.548]]}},{"type":"Feature","properties":{"cls":"us","name":"80"},"geometry":{"type":"LineString","coordinates":[[-94.296,32.534],[-94.162,32.493]]}},{"type":"Feature","properties":{"cls":"us","name":"80"},"geometry":{"type":"LineString","coordinates":[[-94.6,32.511],[-94.437,32.528]]}},{"type":"Feature","properties":{"cls":"us","name":"82"},"geometry":{"type":"LineString","coordinates":[[-94.6,33.504],[-94.456,33.471]]}},{"type":"Feature","properties":{"cls":"us","name":"84"},"geometry":{"type":"LineString","coordinates":[[-94.236,31.947],[-94.006,31.973]]}},{"type":"Feature","properties":{"cls":"us","name":"90"},"geometry":{"type":"LineString","coordinates":[[-94.6,30.028],[-94.444,30.032]]}},{"type":"Feature","properties":{"cls":"us","name":"96"},"geometry":{"type":"LineString","coordinates":[[-94.236,31.931],[-94.163,31.702],[-94.124,31.481],[-94.015,31.346],[-93.994,31.293],[-93.972,31.163],[-93.985,31.145]]}},{"type":"Feature","properties":{"cls":"us","name":"96"},"geometry":{"type":"LineString","coordinates":[[-93.979,31.019],[-93.993,30.893],[-93.969,30.808],[-93.893,30.677],[-93.969,30.442]]}},{"type":"Feature","properties":{"cls":"us","name":"59"},"geometry":{"type":"LineString","coordinates":[[-94.407,31.901],[-94.464,31.856]]}},{"type":"Feature","properties":{"cls":"us","name":"59"},"geometry":{"type":"LineString","coordinates":[[-94.35,32.548],[-94.359,32.477],[-94.341,32.396],[-94.353,32.242],[-94.32,32.155],[-94.328,32.11],[-94.304,32.06],[-94.251,32.007],[-94.232,31.971],[-94.236,31.947]]}},{"type":"Feature","properties":{"cls":"us","name":"69"},"geometry":{"type":"LineString","coordinates":[[-94.39,30.464],[-94.281,30.342]]}},{"type":"Feature","properties":{"cls":"us","name":"80"},"geometry":{"type":"LineString","coordinates":[[-94.35,32.548],[-94.296,32.534]]}},{"type":"Feature","properties":{"cls":"us","name":"80"},"geometry":{"type":"LineString","coordinates":[[-94.437,32.528],[-94.396,32.548]]}},{"type":"Feature","properties":{"cls":"us","name":"90"},"geometry":{"type":"LineString","coordinates":[[-94.444,30.032],[-94.135,30.068]]}},{"type":"Feature","properties":{"cls":"us","name":"90B"},"geometry":{"type":"LineString","coordinates":[[-93.764,30.095],[-93.746,30.094]]}},{"type":"Feature","properties":{"cls":"us","name":"96"},"geometry":{"type":"LineString","coordinates":[[-93.985,31.145],[-93.979,31.019]]}},{"type":"Feature","properties":{"cls":"us","name":"96"},"geometry":{"type":"LineString","coordinates":[[-94.236,31.947],[-94.236,31.931]]}},{"type":"Feature","properties":{"cls":"us","name":"96"},"geometry":{"type":"LineString","coordinates":[[-93.969,30.442],[-94.069,30.36],[-94.135,30.357],[-94.174,30.322],[-94.201,30.267],[-94.195,30.225]]}},{"type":"Feature","properties":{"cls":"us","name":"69"},"geometry":{"type":"LineString","coordinates":[[-94.154,30.125],[-94.136,30.097]]}},{"type":"Feature","properties":{"cls":"us","name":"69"},"geometry":{"type":"LineString","coordinates":[[-94.195,30.225],[-94.18,30.147],[-94.154,30.125]]}},{"type":"Feature","properties":{"name":"Slidell","pop":84239,"major":false},"geometry":{"type":"Point","coordinates":[-89.781,30.275]}},{"type":"Feature","properties":{"name":"Lake Charles","pop":83821,"major":false},"geometry":{"type":"Point","coordinates":[-93.217,30.226]}},{"type":"Feature","properties":{"name":"New Iberia","pop":37540,"major":false},"geometry":{"type":"Point","coordinates":[-91.818,30.004]}},{"type":"Feature","properties":{"name":"Houma","pop":64592,"major":false},"geometry":{"type":"Point","coordinates":[-90.719,29.596]}},{"type":"Feature","properties":{"name":"Monroe","pop":101724,"major":false},"geometry":{"type":"Point","coordinates":[-92.119,32.51]}},{"type":"Feature","properties":{"name":"Lafayette","pop":158214,"major":true},"geometry":{"type":"Point","coordinates":[-92.02,30.2]}},{"type":"Feature","properties":{"name":"Alexandria","pop":76565,"major":false},"geometry":{"type":"Point","coordinates":[-92.445,31.311]}},{"type":"Feature","properties":{"name":"Shreveport","pop":248053,"major":true},"geometry":{"type":"Point","coordinates":[-93.77,32.5]}},{"type":"Feature","properties":{"name":"Baton Rouge","pop":422072,"major":true},"geometry":{"type":"Point","coordinates":[-91.14,30.458]}},{"type":"Feature","properties":{"name":"New Orleans","pop":785000,"major":true},"geometry":{"type":"Point","coordinates":[-90.088,29.969]}}]}