{"type":"FeatureCollection","features":[{"type":"Feature","properties":{"name":"Texas","abbr":"TX","label_lat":31.4347032,"label_lon":-99.2818238},"geometry":{"type":"Polygon","coordinates":[[[-106.6185,32.0005],[-103.0645,32.0004],[-103.0646,32.9999],[-103.0437,34.0036],[-103.0417,36.5004],[-100.0004,36.4997],[-100.0003,34.5604],[-99.9232,34.5746],[-99.695,34.3783],[-99.6,34.3747],[-99.5697,34.4184],[-99.5143,34.414],[-99.4383,34.3712],[-99.4249,34.3858],[-99.4053,34.3729],[-99.3872,34.4108],[-99.3952,34.442],[-99.3689,34.4585],[-99.3196,34.4089],[-99.2613,34.4035],[-99.2744,34.3843],[-99.2365,34.3658],[-99.2326,34.3389],[-99.2069,34.3383],[-99.2114,34.2922],[-99.1954,34.2808],[-99.1898,34.2144],[-99.1537,34.2073],[-99.1304,34.2195],[-99.1266,34.2031],[-99.0794,34.2115],[-99.0445,34.1981],[-98.9882,34.2213],[-98.9726,34.2026],[-98.9513,34.2122],[-98.8729,34.1666],[-98.8681,34.1496],[-98.813,34.1584],[-98.757,34.1246],[-98.6901,34.1332],[-98.6481,34.1644],[-98.5998,34.1606],[-98.5509,34.1326],[-98.561,34.1239],[-98.4863,34.0626],[-98.4144,34.0851],[-98.3984,34.1285],[-98.3801,34.1308],[-98.3844,34.1463],[-98.3656,34.157],[-98.1708,34.1142],[-98.1095,34.1541],[-98.0898,34.1282],[-98.1202,34.0721],[-98.0825,34.0394],[-98.1062,34.0349],[-98.0882,34.0055],[-98.0277,33.9934],[-97.9742,34.0067],[-97.9457,33.9898],[-97.9742,33.9428],[-97.9534,33.9364],[-97.9572,33.9145],[-97.9845,33.9007],[-97.9678,33.8822],[-97.8753,33.8497],[-97.8343,33.8576],[-97.7989,33.8985],[-97.7808,33.8944],[-97.7835,33.9183],[-97.7638,33.9142],[-97.7628,33.9344],[-97.7323,33.9365],[-97.6713,33.9916],[-97.5896,33.9536],[-97.5969,33.9163],[-97.5811,33.8997],[-97.5003,33.9196],[-97.4614,33.9052],[-97.4508,33.8866],[-97.4632,33.842],[-97.4268,33.8186],[-97.3687,33.8214],[-97.3319,33.8845],[-97.3321,33.8551],[-97.3092,33.8887],[-97.2709,33.858],[-97.2556,33.8637],[-97.245,33.9032],[-97.2109,33.9161],[-97.1808,33.8952],[-97.1666,33.8473],[-97.205,33.8189],[-97.1929,33.7604],[-97.1339,33.7181],[-97.0874,33.7411],[-97.0926,33.8042],[-97.0481,33.8175],[-97.0885,33.8518],[-97.067,33.8605],[-97.0418,33.8378],[-97.0214,33.8464],[-96.9838,33.8909],[-96.9963,33.9427],[-96.9813,33.9564],[-96.9729,33.9357],[-96.9163,33.9578],[-96.8753,33.8605],[-96.8506,33.8472],[-96.8322,33.8748],[-96.7943,33.8689],[-96.7616,33.8244],[-96.6996,33.839],[-96.6672,33.9169],[-96.6283,33.8945],[-96.5879,33.8948],[-96.6293,33.8455],[-96.5729,33.8191],[-96.532,33.824],[-96.501,33.7728],[-96.4235,33.7764],[-96.3469,33.6862],[-96.3122,33.7063],[-96.2937,33.7694],[-96.229,33.748],[-96.1866,33.755],[-96.1555,33.814],[-96.1696,33.8009],[-96.1791,33.8102],[-96.1508,33.817],[-96.1492,33.8371],[-96.0994,33.8305],[-96.1001,33.848],[-96.0488,33.8365],[-96.027,33.8575],[-96.0171,33.8415],[-95.9968,33.8539],[-96.0029,33.8736],[-95.9849,33.8525],[-95.9514,33.8573],[-95.9251,33.8849],[-95.8304,33.8348],[-95.8156,33.8599],[-95.758,33.8496],[-95.7522,33.8946],[-95.7006,33.8858],[-95.6655,33.909],[-95.6328,33.9048],[-95.5941,33.9431],[-95.5542,33.927],[-95.5441,33.8806],[-95.5095,33.8976],[-95.505,33.8759],[-95.4614,33.8871],[-95.4633,33.8724],[-95.4427,33.8665],[-95.3626,33.8669],[-95.3299,33.8863],[-95.2889,33.8731],[-95.2846,33.9055],[-95.2687,33.9111],[-95.2577,33.8901],[-95.25,33.9389],[-95.2169,33.9627],[-95.1247,33.9347],[-95.1209,33.9045],[-95.0801,33.921],[-95.1004,33.8956],[-95.0896,33.8809],[-95.0824,33.8799],[-95.0787,33.905],[-95.0668,33.9171],[-95.0759,33.9018],[-95.0601,33.9019],[-95.0466,33.8626],[-94.9885,33.851],[-94.9702,33.8618],[-94.9644,33.837],[-94.9439,33.8302],[-94.9479,33.8084],[-94.9233,33.8087],[-94.918,33.8268],[-94.9215,33.7905],[-94.8764,33.7573],[-94.8681,33.7689],[-94.8771,33.7522],[-94.8607,33.7419],[-94.8204,33.7338],[-94.8234,33.7692],[-94.8034,33.7327],[-94.763,33.7598],[-94.7589,33.7485],[-94.7886,33.7357],[-94.7518,33.7343],[-94.7514,33.7135],[-94.7334,33.7252],[-94.7538,33.7087],[-94.7359,33.6916],[-94.7159,33.6949],[-94.734,33.7157],[-94.7016,33.7029],[-94.7162,33.6879],[-94.6514,33.6858],[-94.6437,33.7015],[-94.6453,33.6736],[-94.671,33.6684],[-94.6549,33.6599],[-94.622,33.6825],[-94.596,33.6639],[-94.5879,33.6863],[-94.5808,33.6664],[-94.5603,33.6666],[-94.5905,33.6451],[-94.5481,33.6603],[-94.543,33.6493],[-94.57,33.6285],[-94.5218,33.6407],[-94.5277,33.6159],[-94.5175,33.6331],[-94.5045,33.6207],[-94.4486,33.6428],[-94.4724,33.6035],[-94.43,33.5911],[-94.4109,33.5683],[-94.3829,33.5833],[-94.3801,33.5689],[-94.4016,33.5594],[-94.3868,33.545],[-94.3536,33.544],[-94.344,33.5678],[-94.3122,33.5507],[-94.2892,33.5821],[-94.2909,33.5599],[-94.2783,33.5576],[-94.2428,33.5897],[-94.2519,33.5594],[-94.232,33.5521],[-94.2057,33.5672],[-94.1921,33.5566],[-94.1941,33.5735],[-94.2173,33.5801],[-94.1839,33.5947],[-94.1422,33.5814],[-94.1516,33.5684],[-94.1351,33.571],[-94.1276,33.5507],[-94.1209,33.5671],[-94.0728,33.5723],[-94.0713,33.5837],[-94.0566,33.5609],[-94.0734,33.5552],[-94.0434,33.5514],[-94.0422,31.9936],[-94.0185,31.9924],[-93.9717,31.9204],[-93.9287,31.9126],[-93.9312,31.8915],[-93.9006,31.8968],[-93.8733,31.8149],[-93.8234,31.7751],[-93.8369,31.7502],[-93.8149,31.7287],[-93.8167,31.7079],[-93.7945,31.7033],[-93.8265,31.6669],[-93.8115,31.6474],[-93.8187,31.6146],[-93.8381,31.6068],[-93.8349,31.5862],[-93.7877,31.5273],[-93.7474,31.5307],[-93.7427,31.5157],[-93.711,31.5122],[-93.7524,31.4827],[-93.7495,31.4687],[-93.7039,31.4555],[-93.7095,31.442],[-93.6925,31.4382],[-93.7049,31.4109],[-93.6741,31.3977],[-93.671,31.3662],[-93.6392,31.372],[-93.6684,31.353],[-93.6873,31.3061],[-93.6425,31.2695],[-93.6203,31.271],[-93.6181,31.2327],[-93.5963,31.2295],[-93.6072,31.2048],[-93.5891,31.1659],[-93.5325,31.1833],[-93.5487,31.1558],[-93.5394,31.1152],[-93.5637,31.0945],[-93.5276,31.0745],[-93.5189,31.0619],[-93.5316,31.0536],[-93.5081,31.0302],[-93.5782,31.0],[-93.5643,30.9897],[-93.5735,30.9712],[-93.5318,30.9582],[-93.526,30.9375],[-93.5741,30.8845],[-93.5586,30.8694],[-93.5687,30.8442],[-93.5544,30.8235],[-93.5838,30.8018],[-93.5921,30.7637],[-93.6143,30.7602],[-93.6054,30.7172],[-93.6172,30.7186],[-93.6299,30.6799],[-93.683,30.6413],[-93.6789,30.5936],[-93.7138,30.5876],[-93.7403,30.5396],[-93.7077,30.5213],[-93.7174,30.4838],[-93.6976,30.4422],[-93.7577,30.3904],[-93.751,30.3599],[-93.7658,30.3327],[-93.7424,30.3011],[-93.7046,30.2899],[-93.7031,30.2385],[-93.7213,30.2096],[-93.7,30.1755],[-93.7095,30.1467],[-93.6882,30.1414],[-93.7341,30.0861],[-93.6995,30.0586],[-93.7179,30.0656],[-93.7411,30.0216],[-93.7886,29.9888],[-93.8384,29.8829],[-93.928,29.8096],[-93.9265,29.7896],[-93.8374,29.6899],[-93.8144,29.5966],[-93.875,29.6214],[-94.0336,29.625],[-94.6252,29.3977],[-94.6503,29.3828],[-94.6239,29.3431],[-94.6504,29.2919],[-94.7133,29.2825],[-94.7727,29.2317],[-95.0864,29.0682],[-95.1065,29.0149],[-95.3298,28.8287],[-95.4201,28.8056],[-95.7778,28.6253],[-96.2355,28.4215],[-96.2823,28.375],[-96.3208,28.3629],[-96.3753,28.2908],[-96.531,28.2212],[-96.7463,28.0796],[-96.8442,28.0003],[-96.9595,27.8753],[-96.9843,27.8038],[-97.0502,27.7503],[-97.1998,27.5003],[-97.2883,27.2776],[-97.3198,27.11],[-97.3232,27.0103],[-97.3004,26.8346],[-97.1252,26.2483],[-97.1083,26.1045],[-97.09,26.0753],[-97.0911,25.9738],[-97.1467,25.971],[-97.1566,25.949],[-97.1756,25.9656],[-97.248,25.9481],[-97.2844,25.9592],[-97.2767,25.9353],[-97.3025,25.9372],[-97.326,25.9177],[-97.3483,25.9311],[-97.3685,25.9153],[-97.3566,25.8877],[-97.3741,25.879],[-97.3595,25.8797],[-97.3567,25.8674],[-97.3766,25.8546],[-97.3641,25.85],[-97.4055,25.8378],[-97.4088,25.8621],[-97.4131,25.8409],[-97.454,25.8541],[-97.4447,25.8674],[-97.4556,25.8839],[-97.4967,25.8797],[-97.4982,25.899],[-97.5217,25.8865],[-97.5372,25.9305],[-97.5829,25.9379],[-97.5667,25.9447],[-97.568,25.9523],[-97.5782,25.942],[-97.5824,25.9625],[-97.6026,25.9577],[-97.6344,25.9903],[-97.6203,25.9924],[-97.6183,26.0021],[-97.6494,26.0109],[-97.6406,26.0245],[-97.6681,26.0194],[-97.6625,26.038],[-97.6933,26.0323],[-97.6914,26.019],[-97.7073,26.0378],[-97.7371,26.0215],[-97.7634,26.0268],[-97.7681,26.0473],[-97.7768,26.0295],[-97.793,26.0345],[-97.8013,26.0602],[-97.8134,26.0442],[-97.8181,26.0564],[-97.8605,26.0529],[-97.8618,26.0699],[-97.8691,26.057],[-97.9339,26.0648],[-97.9342,26.0528],[-97.9673,26.0518],[-97.9813,26.0672],[-98.012,26.0563],[-98.0278,26.0668],[-98.0392,26.0413],[-98.0746,26.0363],[-98.0819,26.0711],[-98.0944,26.0586],[-98.1318,26.0742],[-98.1465,26.0493],[-98.1771,26.0751],[-98.194,26.0533],[-98.2882,26.1047],[-98.2663,26.1207],[-98.2962,26.1203],[-98.306,26.1037],[-98.3352,26.1376],[-98.3356,26.1659],[-98.3523,26.1511],[-98.3606,26.1725],[-98.3867,26.1579],[-98.4441,26.2009],[-98.4452,26.2246],[-98.4816,26.2194],[-98.4816,26.2013],[-98.5546,26.2474],[-98.5459,26.2371],[-98.563,26.2249],[-98.5875,26.2578],[-98.6165,26.2468],[-98.6235,26.2597],[-98.6342,26.2426],[-98.6712,26.2374],[-98.6811,26.2628],[-98.7194,26.2723],[-98.7018,26.2862],[-98.751,26.2963],[-98.7542,26.3079],[-98.7362,26.3092],[-98.7511,26.3316],[-98.789,26.3304],[-98.8073,26.3694],[-98.8967,26.3533],[-98.9259,26.3944],[-98.9422,26.3697],[-98.9742,26.4011],[-99.0106,26.3921],[-99.0371,26.4136],[-99.0851,26.3988],[-99.1135,26.4325],[-99.092,26.4724],[-99.1049,26.5004],[-99.1712,26.542],[-99.2089,26.7248],[-99.24,26.7459],[-99.2686,26.8432],[-99.3286,26.8786],[-99.3247,26.916],[-99.3883,26.9442],[-99.3784,26.98],[-99.4155,27.0172],[-99.4457,27.0218],[-99.4523,27.0627],[-99.4292,27.091],[-99.4421,27.1069],[-99.4263,27.1763],[-99.4415,27.2499],[-99.4615,27.2682],[-99.4891,27.2615],[-99.492,27.3007],[-99.538,27.317],[-99.5046,27.3387],[-99.4875,27.4116],[-99.4951,27.4515],[-99.4793,27.4786],[-99.4968,27.5001],[-99.5284,27.4985],[-99.5121,27.5683],[-99.5549,27.6145],[-99.5848,27.6039],[-99.5776,27.6186],[-99.5962,27.6399],[-99.6243,27.644],[-99.6389,27.6268],[-99.6661,27.6361],[-99.6689,27.66],[-99.7115,27.6584],[-99.7707,27.7321],[-99.7963,27.7356],[-99.8131,27.774],[-99.8388,27.7642],[-99.8509,27.794],[-99.8768,27.7978],[-99.8772,27.8422],[-99.9044,27.8753],[-99.8935,27.8992],[-99.9371,27.9405],[-99.9318,27.981],[-99.9914,27.9946],[-100.0179,28.0648],[-100.0531,28.0847],[-100.0843,28.1448],[-100.2081,28.1904],[-100.2203,28.2322],[-100.2516,28.2362],[-100.2914,28.2754],[-100.2865,28.3123],[-100.3444,28.3897],[-100.3378,28.443],[-100.3683,28.4772],[-100.3338,28.4993],[-100.3883,28.5149],[-100.4113,28.5507],[-100.3985,28.5852],[-100.4473,28.6093],[-100.4471,28.6422],[-100.5004,28.662],[-100.5076,28.7406],[-100.5334,28.7592],[-100.5354,28.8052],[-100.5473,28.8258],[-100.5747,28.8288],[-100.6011,28.9013],[-100.6406,28.9142],[-100.6297,28.9211],[-100.6515,28.9434],[-100.646,28.988],[-100.6752,29.1007],[-100.7726,29.1684],[-100.7671,29.1953],[-100.814,29.2631],[-100.876,29.2796],[-100.8868,29.3078],[-101.01,29.3683],[-101.0602,29.4587],[-101.1468,29.4742],[-101.1738,29.5146],[-101.2549,29.5203],[-101.2612,29.5368],[-101.241,29.565],[-101.2504,29.6242],[-101.2691,29.6301],[-101.291,29.5715],[-101.3055,29.5779],[-101.3025,29.6504],[-101.346,29.6622],[-101.3613,29.6501],[-101.3728,29.6994],[-101.4156,29.7465],[-101.4023,29.7712],[-101.4489,29.7507],[-101.4609,29.7897],[-101.536,29.7589],[-101.5448,29.8119],[-101.5677,29.7987],[-101.5758,29.7693],[-101.6269,29.7708],[-101.6446,29.7542],[-101.6617,29.7709],[-101.7089,29.7616],[-101.7738,29.7887],[-101.8051,29.7803],[-101.8036,29.8034],[-101.8178,29.8116],[-101.8237,29.7874],[-101.8527,29.8078],[-101.9293,29.7826],[-101.9356,29.7996],[-101.9575,29.7958],[-101.9763,29.816],[-101.9873,29.7968],[-102.0358,29.8041],[-102.0497,29.7853],[-102.0732,29.7865],[-102.1436,29.8033],[-102.18,29.8264],[-102.187,29.8487],[-102.2235,29.8405],[-102.2465,29.8641],[-102.2615,29.8532],[-102.2648,29.8675],[-102.3159,29.88],[-102.3646,29.8453],[-102.3872,29.7614],[-102.4873,29.7866],[-102.5176,29.7836],[-102.5135,29.7654],[-102.548,29.7446],[-102.5677,29.7715],[-102.5738,29.7549],[-102.6304,29.7342],[-102.674,29.7446],[-102.6914,29.7214],[-102.6936,29.6767],[-102.7419,29.6332],[-102.7405,29.5975],[-102.7683,29.5952],[-102.7712,29.5484],[-102.8083,29.5229],[-102.8007,29.4862],[-102.8256,29.4579],[-102.8334,29.4105],[-102.8124,29.4005],[-102.845,29.3744],[-102.8394,29.3589],[-102.8844,29.3479],[-102.9064,29.2601],[-102.8717,29.2418],[-102.8675,29.2239],[-102.8951,29.2085],[-102.9123,29.2194],[-102.9178,29.1909],[-102.9434,29.1914],[-102.9509,29.1736],[-102.9956,29.1793],[-103.0339,29.101],[-103.0758,29.0915],[-103.0859,29.0537],[-103.1006,29.0603],[-103.1168,28.9844],[-103.1639,28.9722],[-103.2279,28.9919],[-103.2504,28.9804],[-103.2673,28.9961],[-103.287,28.9782],[-103.2869,29.0013],[-103.3162,29.0107],[-103.3077,29.0245],[-103.3388,29.0203],[-103.3306,29.0432],[-103.3443,29.0459],[-103.3596,29.0186],[-103.3865,29.0216],[-103.3886,29.034],[-103.4321,29.0434],[-103.4499,29.0727],[-103.4714,29.0667],[-103.4699,29.0853],[-103.5537,29.158],[-103.6506,29.1565],[-103.6596,29.1706],[-103.7186,29.1808],[-103.7585,29.2329],[-103.7771,29.2205],[-103.7836,29.2653],[-103.7994,29.2584],[-103.8135,29.274],[-103.9758,29.2962],[-104.0375,29.3197],[-104.1066,29.3733],[-104.1674,29.3947],[-104.2177,29.4566],[-104.21,29.4822],[-104.2307,29.4787],[-104.2371,29.4976],[-104.3155,29.5328],[-104.3382,29.5202],[-104.476,29.628],[-104.5085,29.6327],[-104.5441,29.6807],[-104.5302,29.6905],[-104.5604,29.7352],[-104.5498,29.7409],[-104.5699,29.7526],[-104.5659,29.7715],[-104.6833,29.9291],[-104.6732,29.955],[-104.6853,29.9567],[-104.6802,29.977],[-104.6931,29.9755],[-104.6895,30.0151],[-104.7073,30.0499],[-104.685,30.0853],[-104.6967,30.1345],[-104.6863,30.1733],[-104.7063,30.2348],[-104.7632,30.2748],[-104.7667,30.306],[-104.8116,30.3328],[-104.8164,30.3752],[-104.8593,30.3903],[-104.8478,30.4198],[-104.868,30.4414],[-104.8666,30.4945],[-104.9227,30.6037],[-104.9717,30.61],[-105.0066,30.6861],[-105.0618,30.6858],[-105.1183,30.7497],[-105.1614,30.7521],[-105.1562,30.7698],[-105.1766,30.768],[-105.1952,30.7923],[-105.2167,30.7834],[-105.215,30.8059],[-105.2572,30.7944],[-105.2918,30.8262],[-105.3169,30.8109],[-105.3393,30.8405],[-105.3998,30.8521],[-105.4002,30.8894],[-105.4917,30.9424],[-105.502,30.9677],[-105.5572,30.9897],[-105.6045,31.0837],[-105.7419,31.1646],[-105.773,31.1667],[-105.7828,31.1975],[-105.8693,31.289],[-105.9379,31.3182],[-105.9538,31.3647],[-106.0049,31.3925],[-106.0817,31.3992],[-106.2076,31.4671],[-106.3803,31.7314],[-106.4514,31.7644],[-106.4905,31.7489],[-106.5471,31.8073],[-106.6028,31.825],[-106.602,31.8444],[-106.6359,31.8662],[-106.6292,31.8837],[-106.6456,31.8956],[-106.6118,31.92],[-106.6297,31.9266],[-106.6196,31.9716],[-106.6395,31.9803],[-106.6185,32.0005]]]}},{"type":"Feature","properties":{"name":"Arkansas","abbr":"AR","label_lat":34.8955256,"label_lon":-92.4446262},"geometry":{"type":"Polygon","coordinates":[[[-94.431,35.3925],[-94.6178,36.4995],[-90.1523,36.4979],[-90.1596,36.4803],[-90.1424,36.4715],[-90.1558,36.4636],[-90.1339,36.4536],[-90.1386,36.4138],[-90.0634,36.384],[-90.0824,36.3219],[-90.0642,36.3025],[-90.0835,36.2721],[-90.1168,36.2638],[-90.1263,36.2291],[-90.2205,36.1844],[-90.2354,36.1395],[-90.3189,36.0903],[-90.3779,35.9957],[-89.7331,36.0006],[-89.7146,35.963],[-89.6531,35.9226],[-89.6444,35.8948],[-89.6661,35.8829],[-89.7426,35.9067],[-89.7725,35.8651],[-89.7064,35.8372],[-89.7044,35.8196],[-89.7812,35.8053],[-89.8209,35.7569],[-89.8765,35.738],[-89.9098,35.7594],[-89.9563,35.7334],[-89.9558,35.6906],[-89.931,35.66],[-89.8946,35.6515],[-89.8647,35.6704],[-89.8512,35.6574],[-89.8571,35.6342],[-89.9575,35.5885],[-89.9419,35.5569],[-89.9089,35.5474],[-89.909,35.5205],[-89.948,35.5201],[-89.9895,35.5601],[-90.0351,35.5525],[-90.0498,35.5105],[-90.0189,35.4662],[-90.0568,35.4039],[-90.0446,35.3931],[-90.0694,35.4082],[-90.0682,35.4668],[-90.0987,35.4786],[-90.1689,35.4222],[-90.1793,35.3852],[-90.1355,35.3767],[-90.1462,35.3995],[-90.1295,35.4138],[-90.075,35.3842],[-90.1103,35.3428],[-90.1091,35.305],[-90.1589,35.3006],[-90.1689,35.2803],[-90.1521,35.256],[-90.1051,35.2543],[-90.0793,35.2288],[-90.0744,35.2106],[-90.1174,35.1879],[-90.0654,35.1377],[-90.0965,35.1171],[-90.1428,35.1351],[-90.1653,35.1252],[-90.2094,35.0265],[-90.2956,35.0401],[-90.3078,34.9919],[-90.2501,34.9512],[-90.2447,34.921],[-90.3135,34.8717],[-90.3092,34.845],[-90.3404,34.8604],[-90.4195,34.8329],[-90.4383,34.8846],[-90.4799,34.8833],[-90.4839,34.8613],[-90.4568,34.8227],[-90.4746,34.7932],[-90.454,34.7369],[-90.4889,34.7237],[-90.5202,34.7319],[-90.5245,34.7514],[-90.501,34.7712],[-90.5229,34.8023],[-90.5476,34.7846],[-90.5364,34.7483],[-90.5681,34.7248],[-90.5357,34.6979],[-90.4725,34.6998],[-90.466,34.6743],[-90.5321,34.6275],[-90.5545,34.6422],[-90.5379,34.674],[-90.5499,34.6955],[-90.5884,34.671],[-90.5872,34.6157],[-90.5407,34.5481],[-90.5889,34.4911],[-90.5711,34.4203],[-90.6585,34.3757],[-90.663,34.3148],[-90.6931,34.3226],[-90.6767,34.3714],[-90.7641,34.3634],[-90.7413,34.3056],[-90.7652,34.2805],[-90.8297,34.2724],[-90.8478,34.2065],[-90.9295,34.2441],[-90.9352,34.219],[-90.9142,34.1955],[-90.8879,34.182],[-90.8166,34.183],[-90.8087,34.1594],[-90.8472,34.1369],[-90.91,34.1655],[-90.9543,34.1385],[-90.9432,34.1072],[-90.8826,34.0966],[-90.8705,34.0805],[-90.8942,34.0259],[-90.9879,34.019],[-90.9616,33.9799],[-90.9676,33.9633],[-90.9984,33.965],[-91.0189,34.0032],[-91.0879,33.9753],[-91.0841,33.9562],[-91.0103,33.9294],[-91.0727,33.8549],[-91.0468,33.8154],[-90.9885,33.7845],[-91.0233,33.763],[-91.1322,33.7834],[-91.1464,33.7306],[-91.1174,33.7053],[-91.0599,33.7148],[-91.0322,33.6766],[-91.094,33.6584],[-91.1613,33.7072],[-91.2104,33.699],[-91.229,33.6775],[-91.1407,33.6269],[-91.1304,33.606],[-91.1521,33.5827],[-91.2314,33.5606],[-91.1826,33.5011],[-91.2358,33.4397],[-91.1773,33.4436],[-91.1676,33.4983],[-91.118,33.4538],[-91.1319,33.4301],[-91.2,33.4181],[-91.2081,33.402],[-91.1427,33.3798],[-91.0969,33.411],[-91.0865,33.4516],[-91.0576,33.4453],[-91.0682,33.414],[-91.1422,33.349],[-91.1414,33.2989],[-91.1061,33.2418],[-91.0785,33.2833],[-91.0438,33.2756],[-91.0541,33.2461],[-91.0917,33.2208],[-91.0886,33.1422],[-91.1267,33.129],[-91.1837,33.1417],[-91.2018,33.1251],[-91.2002,33.1069],[-91.1212,33.0592],[-91.1271,33.036],[-91.1661,33.0041],[-94.043,33.0192],[-94.0434,33.5523],[-94.0729,33.5547],[-94.0566,33.5609],[-94.0729,33.5848],[-94.0728,33.5723],[-94.1209,33.5671],[-94.129,33.551],[-94.1351,33.571],[-94.1516,33.5684],[-94.1422,33.5814],[-94.1839,33.5947],[-94.2171,33.581],[-94.1941,33.5735],[-94.1954,33.5551],[-94.2057,33.5672],[-94.2501,33.5568],[-94.2428,33.5897],[-94.2783,33.5576],[-94.2909,33.5599],[-94.2892,33.5821],[-94.3122,33.5507],[-94.344,33.5678],[-94.3536,33.544],[-94.3861,33.5448],[-94.4016,33.5594],[-94.3797,33.5806],[-94.4122,33.5687],[-94.43,33.5911],[-94.4724,33.6035],[-94.4482,33.6424],[-94.4859,33.6379],[-94.431,35.3925]]]}},{"type":"Feature","properties":{"name":"Mississippi","abbr":"MS","label_lat":32.6864714,"label_lon":-89.6561377},"geometry":{"type":"Polygon","coordinates":[[[-90.956,34.1201],[-90.9543,34.1385],[-90.91,34.1655],[-90.8472,34.1369],[-90.8072,34.1637],[-90.8166,34.183],[-90.9117,34.1939],[-90.9352,34.219],[-90.929,34.2445],[-90.8478,34.2065],[-90.8297,34.2724],[-90.7652,34.2805],[-90.7413,34.3056],[-90.7641,34.3634],[-90.6767,34.3714],[-90.6931,34.3226],[-90.663,34.3148],[-90.6585,34.3757],[-90.5711,34.4203],[-90.5889,34.4911],[-90.5407,34.5481],[-90.5872,34.6157],[-90.5884,34.671],[-90.5499,34.6955],[-90.5378,34.675],[-90.5541,34.6409],[-90.5279,34.6279],[-90.4626,34.6876],[-90.477,34.7012],[-90.539,34.6988],[-90.5656,34.7211],[-90.5635,34.7387],[-90.5354,34.7501],[-90.5476,34.7846],[-90.5147,34.8018],[-90.501,34.7712],[-90.5245,34.7514],[-90.5183,34.7306],[-90.455,34.7356],[-90.4746,34.7932],[-90.4569,34.8232],[-90.485,34.8692],[-90.4662,34.891],[-90.4366,34.8827],[-90.4223,34.8337],[-90.3404,34.8604],[-90.3074,34.8462],[-90.3135,34.8717],[-90.2501,34.9073],[-90.2445,34.9376],[-90.3093,34.9957],[-88.2,34.9956],[-88.1524,34.9197],[-88.0982,34.8927],[-88.4732,31.8939],[-88.3844,30.1585],[-88.4613,30.1467],[-88.5459,30.1767],[-88.7653,30.1899],[-88.8214,30.2174],[-88.9003,30.17],[-88.889,30.1398],[-89.0965,30.1658],[-89.1837,30.2122],[-89.261,30.182],[-89.495,30.1608],[-89.5148,30.1618],[-89.5348,30.1954],[-89.5768,30.1832],[-89.6157,30.2234],[-89.614,30.2448],[-89.6472,30.2894],[-89.6262,30.3143],[-89.6296,30.339],[-89.6572,30.3566],[-89.6838,30.4058],[-89.6834,30.4515],[-89.7248,30.4921],[-89.7575,30.4996],[-89.7792,30.544],[-89.7897,30.5447],[-89.8039,30.5493],[-89.7869,30.5691],[-89.808,30.5677],[-89.8139,30.6077],[-89.8307,30.6172],[-89.814,30.6382],[-89.8522,30.6617],[-89.8378,30.6719],[-89.8425,30.7204],[-89.8256,30.7274],[-89.8367,30.7351],[-89.8161,30.7389],[-89.8287,30.7381],[-89.8351,30.7711],[-89.8192,30.7952],[-89.8116,30.7875],[-89.8035,30.7911],[-89.8157,30.8034],[-89.7987,30.8209],[-89.7815,30.8189],[-89.7925,30.8504],[-89.7717,30.8547],[-89.7734,30.8977],[-89.7448,30.9189],[-89.7565,30.9429],[-89.7271,30.9674],[-89.7317,31.0048],[-91.6369,30.9994],[-91.5784,31.024],[-91.5599,31.0541],[-91.6269,31.1188],[-91.5889,31.189],[-91.654,31.2558],[-91.5156,31.2782],[-91.5087,31.3151],[-91.5482,31.3461],[-91.5461,31.3822],[-91.569,31.3776],[-91.5763,31.4105],[-91.5434,31.4326],[-91.5218,31.3752],[-91.4748,31.3686],[-91.4721,31.3971],[-91.5151,31.4492],[-91.5225,31.5221],[-91.4476,31.5407],[-91.4054,31.5765],[-91.4188,31.5966],[-91.4929,31.5896],[-91.5155,31.6304],[-91.4961,31.6453],[-91.4362,31.6125],[-91.401,31.6204],[-91.3979,31.7094],[-91.3694,31.7469],[-91.2631,31.7548],[-91.2812,31.7723],[-91.3656,31.7608],[-91.3452,31.8439],[-91.294,31.8605],[-91.2832,31.8158],[-91.2543,31.8137],[-91.245,31.8322],[-91.2677,31.8627],[-91.1823,31.9158],[-91.1848,31.9656],[-91.1644,31.9826],[-91.1028,31.991],[-91.0759,32.0168],[-91.0914,32.0361],[-91.1538,32.0507],[-91.1585,32.0729],[-91.1357,32.0807],[-91.0809,32.0479],[-91.0811,32.0784],[-91.0352,32.1005],[-91.0041,32.1462],[-91.0029,32.1621],[-91.0583,32.181],[-91.0536,32.1244],[-91.1628,32.1327],[-91.1746,32.155],[-91.1642,32.1969],[-91.0837,32.2264],[-91.0614,32.2186],[-91.039,32.2423],[-91.0029,32.2231],[-90.9949,32.1931],[-90.9694,32.2525],[-90.9795,32.2937],[-90.9498,32.2831],[-90.9222,32.2986],[-90.8756,32.3717],[-90.8907,32.3722],[-90.9124,32.3395],[-90.9936,32.354],[-91.0014,32.3794],[-90.9941,32.4039],[-90.966,32.4207],[-90.9696,32.4395],[-90.9955,32.4509],[-91.0514,32.4378],[-91.1131,32.4777],[-91.0937,32.5491],[-91.0381,32.4904],[-91.0005,32.4822],[-90.9872,32.4957],[-91.0804,32.5565],[-91.0082,32.6042],[-91.0143,32.6405],[-91.0372,32.6379],[-91.0498,32.6072],[-91.1199,32.5848],[-91.1536,32.6262],[-91.1262,32.6671],[-91.0553,32.7171],[-91.1659,32.7556],[-91.1578,32.8233],[-91.0706,32.8887],[-91.064,32.9241],[-91.1066,32.9889],[-91.1355,32.9797],[-91.1313,32.9269],[-91.1474,32.9041],[-91.1889,32.9038],[-91.214,32.9272],[-91.1624,33.0197],[-91.1291,33.0336],[-91.1203,33.0553],[-91.2002,33.1069],[-91.2018,33.1251],[-91.1837,33.1417],[-91.1317,33.1291],[-91.0912,33.1383],[-91.0917,33.2208],[-91.0707,33.2273],[-91.0436,33.2746],[-91.0785,33.2833],[-91.1001,33.2381],[-91.1417,33.3004],[-91.1421,33.3495],[-91.0682,33.414],[-91.0598,33.4503],[-91.0865,33.4516],[-91.0981,33.4096],[-91.1477,33.3789],[-91.2092,33.4063],[-91.1319,33.4301],[-91.118,33.4538],[-91.1357,33.4807],[-91.171,33.4976],[-91.1773,33.4436],[-91.2358,33.4397],[-91.1826,33.5011],[-91.2314,33.5606],[-91.1521,33.5827],[-91.1304,33.606],[-91.1407,33.6269],[-91.219,33.6615],[-91.2285,33.6805],[-91.2078,33.7001],[-91.1613,33.7072],[-91.094,33.6584],[-91.0329,33.6752],[-91.0599,33.7148],[-91.132,33.7139],[-91.1451,33.7673],[-91.1297,33.7836],[-91.0233,33.763],[-90.9912,33.7768],[-90.9998,33.7991],[-91.0468,33.8154],[-91.073,33.8574],[-91.0103,33.9294],[-91.0898,33.9697],[-91.0189,34.0032],[-91.0001,33.9664],[-90.9709,33.9619],[-90.9616,33.9799],[-90.9879,34.019],[-90.889,34.0298],[-90.8719,34.0867],[-90.9212,34.0939],[-90.956,34.1201]]]}}]}